<?xml version='1.0' encoding='utf-8'?>
<osm version="0.6" generator="Independent Pyosmium QA; synthetic"><bounds minlon="-1" minlat="-1" maxlon="5" maxlat="5" /><node id="1" lon="0" lat="0" version="2" changeset="123" uid="9" user="测试 café" timestamp="2025-01-02T03:04:05Z" /><node id="2" lon="4" lat="0" version="2" changeset="123" uid="9" user="测试 café" timestamp="2025-01-02T03:04:05Z" /><node id="3" lon="4" lat="4" version="2" changeset="123" uid="9" user="测试 café" timestamp="2025-01-02T03:04:05Z" /><node id="4" lon="0" lat="4" version="2" changeset="123" uid="9" user="测试 café" timestamp="2025-01-02T03:04:05Z" /><node id="5" lon="1" lat="1" version="2" changeset="123" uid="9" user="测试 café" timestamp="2025-01-02T03:04:05Z" /><node id="6" lon="1" lat="2" version="2" changeset="123" uid="9" user="测试 café" timestamp="2025-01-02T03:04:05Z" /><node id="7" lon="2" lat="2" version="2" changeset="123" uid="9" user="测试 café" timestamp="2025-01-02T03:04:05Z" /><node id="8" lon="2" lat="1" version="2" changeset="123" uid="9" user="测试 café" timestamp="2025-01-02T03:04:05Z" /><way id="101" version="2" changeset="123" uid="9" user="测试 café" timestamp="2025-01-02T03:04:05Z"><nd ref="1" /><nd ref="2" /><nd ref="3" /></way><way id="102" version="2" changeset="123" uid="9" user="测试 café" timestamp="2025-01-02T03:04:05Z"><nd ref="1" /><nd ref="4" /><nd ref="3" /></way><way id="103" version="2" changeset="123" uid="9" user="测试 café" timestamp="2025-01-02T03:04:05Z"><nd ref="5" /><nd ref="6" /><nd ref="7" /><nd ref="8" /><nd ref="5" /></way><relation id="201" version="2" changeset="123" uid="9" user="测试 café" timestamp="2025-01-02T03:04:05Z"><member type="way" ref="101" role="outer" /><member type="way" ref="102" role="outer" /><member type="way" ref="103" role="inner" /><tag k="type" v="multipolygon" /><tag k="building" v="yes" /><tag k="name" v="中文 &amp; café" /></relation><relation id="202" version="2" changeset="123" uid="9" user="测试 café" timestamp="2025-01-02T03:04:05Z"><member type="relation" ref="201" role="site" /><member type="node" ref="1" role="label" /><tag k="type" v="site" /><tag k="name" v="nested" /></relation></osm>