<?xml version='1.0' encoding='utf-8'?>
<osm version="0.6" generator="GeoD independent QA subset; not a provider original" attribution="OpenStreetMap contributors" license="https://www.openstreetmap.org/copyright"><node id="256348274" version="5" changeset="29510077" uid="2601744" user="sctrojan79" timestamp="2015-03-16T05:42:40Z" lon="-122.2978547" lat="47.4449232" /><node id="256348275" version="6" changeset="74147569" uid="8168739" user="Anu_Zade" timestamp="2019-09-05T18:40:17Z" lon="-122.2977026" lat="47.4448434" /><node id="256348276" version="3" changeset="33136121" uid="1408522" user="Omnific" timestamp="2015-08-05T18:18:37Z" lon="-122.2990544" lat="47.4439392" /><node id="256348277" version="4" changeset="33136121" uid="1408522" user="Omnific" timestamp="2015-08-05T18:18:37Z" lon="-122.2990732" lat="47.443288" /><node id="256348278" version="3" changeset="33136121" uid="1408522" user="Omnific" timestamp="2015-08-05T18:18:37Z" lon="-122.2971458" lat="47.4419679" /><node id="256348279" version="3" changeset="33136121" uid="1408522" user="Omnific" timestamp="2015-08-05T18:18:37Z" lon="-122.2971523" lat="47.4416356" /><node id="256348280" version="3" changeset="33136121" uid="1408522" user="Omnific" timestamp="2015-08-05T18:18:37Z" lon="-122.2986335" lat="47.4416374" /><node id="256348281" version="2" changeset="33840037" uid="2601744" user="sctrojan79" timestamp="2015-09-06T19:13:06Z" lon="-122.3011992" lat="47.4434012" /><node id="256348282" version="4" changeset="33840037" uid="2601744" user="sctrojan79" timestamp="2015-09-06T19:13:06Z" lon="-122.3013336" lat="47.4436403" /><node id="256348283" version="5" changeset="33840037" uid="2601744" user="sctrojan79" timestamp="2015-09-06T19:13:06Z" lon="-122.3011997" lat="47.4438356" /><node id="256348350" version="4" changeset="33840037" uid="2601744" user="sctrojan79" timestamp="2015-09-06T19:13:06Z" lon="-122.2995668" lat="47.444929" /><node id="257569912" version="7" changeset="118147792" uid="1408522" user="Omnific" timestamp="2022-03-06T06:32:39Z" lon="-122.3011782" lat="47.4481795" /><node id="257569913" version="8" changeset="127725598" uid="10907417" user="Emey_lyft" timestamp="2022-10-18T12:42:16Z" lon="-122.301709" lat="47.447759" /><node id="257569916" version="6" changeset="69925217" uid="1408522" user="Omnific" timestamp="2019-05-06T07:33:59Z" lon="-122.3032605" lat="47.4388947" /><node id="257569917" version="6" changeset="69925217" uid="1408522" user="Omnific" timestamp="2019-05-06T07:33:59Z" lon="-122.3012444" lat="47.4392083" /><node id="257569918" version="6" changeset="69925217" uid="1408522" user="Omnific" timestamp="2019-05-06T07:33:59Z" lon="-122.3010739" lat="47.4387489" /><node id="257569919" version="6" changeset="69925217" uid="1408522" user="Omnific" timestamp="2019-05-06T07:33:59Z" lon="-122.3031028" lat="47.4384323" /><node id="430538361" version="2" changeset="33840037" uid="2601744" user="sctrojan79" timestamp="2015-09-06T19:13:07Z" lon="-122.3001024" lat="47.4445695" /><node id="430538363" version="2" changeset="33840037" uid="2601744" user="sctrojan79" timestamp="2015-09-06T19:13:07Z" lon="-122.3007191" lat="47.4441556" /><node id="430538365" version="2" changeset="33840037" uid="2601744" user="sctrojan79" timestamp="2015-09-06T19:13:07Z" lon="-122.3012827" lat="47.4437605" /><node id="430538369" version="3" changeset="33840037" uid="2601744" user="sctrojan79" timestamp="2015-09-06T19:13:07Z" lon="-122.3007377" lat="47.4430839" /><node id="430538370" version="2" changeset="33840037" uid="2601744" user="sctrojan79" timestamp="2015-09-06T19:13:08Z" lon="-122.299633" lat="47.4423242" /><node id="460248724" version="7" changeset="127725598" uid="10907417" user="Emey_lyft" timestamp="2022-10-18T12:42:16Z" lon="-122.3012107" lat="47.4481511"><tag k="aeroway" v="gate" /><tag k="name" v="N4" /><tag k="ref" v="N4" /><tag k="source" v="yahoo_wms" /></node><node id="460248735" version="7" changeset="127725598" uid="10907417" user="Emey_lyft" timestamp="2022-10-18T12:42:16Z" lon="-122.3015254" lat="47.447903"><tag k="aeroway" v="gate" /><tag k="name" v="N6" /><tag k="ref" v="N6" /><tag k="source" v="yahoo_wms" /></node><node id="460248743" version="7" changeset="127725598" uid="10907417" user="Emey_lyft" timestamp="2022-10-18T12:42:16Z" lon="-122.3016689" lat="47.4477906"><tag k="aeroway" v="gate" /><tag k="name" v="N7" /><tag k="ref" v="N7" /><tag k="source" v="yahoo_wms" /></node><node id="460248750" version="7" changeset="127725598" uid="10907417" user="Emey_lyft" timestamp="2022-10-18T12:42:16Z" lon="-122.3018512" lat="47.4478399"><tag k="aeroway" v="gate" /><tag k="name" v="N8" /><tag k="ref" v="N8" /><tag k="source" v="yahoo_wms" /></node><node id="460248758" version="6" changeset="118147792" uid="1408522" user="Omnific" timestamp="2022-03-06T06:32:39Z" lon="-122.3023521" lat="47.4481303"><tag k="aeroway" v="gate" /><tag k="name" v="N9" /><tag k="ref" v="N9" /><tag k="source" v="yahoo_wms" /></node><node id="460248811" version="7" changeset="127725598" uid="10907417" user="Emey_lyft" timestamp="2022-10-18T12:42:16Z" lon="-122.3013172" lat="47.4482595"><tag k="aeroway" v="gate" /><tag k="name" v="N2" /><tag k="ref" v="N3" /><tag k="source" v="yahoo_wms" /></node><node id="460249625" version="7" changeset="69925217" uid="1408522" user="Omnific" timestamp="2019-05-06T07:33:59Z" lon="-122.3011152" lat="47.4387425"><tag k="aeroway" v="gate" /><tag k="name" v="S4" /><tag k="ref" v="S4" /><tag k="source" v="yahoo_wms" /></node><node id="460249634" version="5" changeset="69925217" uid="1408522" user="Omnific" timestamp="2019-05-06T07:33:59Z" lon="-122.3011316" lat="47.4389183"><tag k="aeroway" v="gate" /><tag k="name" v="S5" /><tag k="ref" v="S5" /><tag k="source" v="yahoo_wms" /></node><node id="460249643" version="5" changeset="69925217" uid="1408522" user="Omnific" timestamp="2019-05-06T07:33:59Z" lon="-122.3011445" lat="47.438956"><tag k="aeroway" v="gate" /><tag k="name" v="S6" /><tag k="ref" v="S6" /><tag k="source" v="yahoo_wms" /></node><node id="460249651" version="4" changeset="69925217" uid="1408522" user="Omnific" timestamp="2019-05-06T07:33:59Z" lon="-122.3015515" lat="47.4391603"><tag k="aeroway" v="gate" /><tag k="name" v="S7" /><tag k="ref" v="S7" /><tag k="source" v="yahoo_wms" /></node><node id="460249658" version="4" changeset="69925217" uid="1408522" user="Omnific" timestamp="2019-05-06T07:33:59Z" lon="-122.3016004" lat="47.4391527"><tag k="aeroway" v="gate" /><tag k="name" v="S8" /><tag k="ref" v="S8" /><tag k="source" v="yahoo_wms" /></node><node id="460249662" version="5" changeset="69925217" uid="1408522" user="Omnific" timestamp="2019-05-06T07:33:59Z" lon="-122.3016554" lat="47.4386582"><tag k="aeroway" v="gate" /><tag k="name" v="S3" /><tag k="ref" v="S3" /><tag k="source" v="yahoo_wms" /></node><node id="460249671" version="5" changeset="69925217" uid="1408522" user="Omnific" timestamp="2019-05-06T07:33:59Z" lon="-122.3017158" lat="47.4386488"><tag k="aeroway" v="gate" /><tag k="name" v="S2" /><tag k="ref" v="S2" /><tag k="source" v="yahoo_wms" /></node><node id="460249680" version="5" changeset="69925217" uid="1408522" user="Omnific" timestamp="2019-05-06T07:33:59Z" lon="-122.3023899" lat="47.4385436"><tag k="aeroway" v="gate" /><tag k="name" v="S1" /><tag k="ref" v="S1" /><tag k="source" v="yahoo_wms" /></node><node id="460249689" version="8" changeset="69925217" uid="1408522" user="Omnific" timestamp="2019-05-06T07:33:59Z" lon="-122.3031102" lat="47.438454"><tag k="aeroway" v="gate" /><tag k="name" v="S16" /><tag k="ref" v="S16" /><tag k="source" v="yahoo_wms" /></node><node id="460249700" version="6" changeset="69925217" uid="1408522" user="Omnific" timestamp="2019-05-06T07:33:59Z" lon="-122.3032408" lat="47.438837"><tag k="aeroway" v="gate" /><tag k="name" v="S12" /><tag k="ref" v="S12" /><tag k="source" v="yahoo_wms" /></node><node id="460249708" version="5" changeset="69925217" uid="1408522" user="Omnific" timestamp="2019-05-06T07:34:00Z" lon="-122.303251" lat="47.4388668"><tag k="aeroway" v="gate" /><tag k="name" v="S11" /><tag k="ref" v="S11" /><tag k="source" v="yahoo_wms" /></node><node id="460249717" version="6" changeset="69925217" uid="1408522" user="Omnific" timestamp="2019-05-06T07:34:00Z" lon="-122.3028457" lat="47.4389594"><tag k="aeroway" v="gate" /><tag k="name" v="S10" /><tag k="ref" v="S10" /><tag k="source" v="yahoo_wms" /></node><node id="460249725" version="6" changeset="69925217" uid="1408522" user="Omnific" timestamp="2019-05-06T07:34:00Z" lon="-122.3019774" lat="47.4390949"><tag k="aeroway" v="gate" /><tag k="name" v="S9" /><tag k="ref" v="S9" /><tag k="source" v="yahoo_wms" /></node><node id="460249730" version="5" changeset="69925217" uid="1408522" user="Omnific" timestamp="2019-05-06T07:34:00Z" lon="-122.3027806" lat="47.4384826"><tag k="aeroway" v="gate" /><tag k="name" v="S16A-D" /><tag k="ref" v="S16A-D" /><tag k="source" v="yahoo_wms" /></node><node id="669240154" version="1" changeset="4167142" uid="239998" user="Sundance" timestamp="2010-03-19T05:05:22Z" lon="-122.3018365" lat="47.4569826" /><node id="669240155" version="1" changeset="4167142" uid="239998" user="Sundance" timestamp="2010-03-19T05:05:22Z" lon="-122.3017346" lat="47.456979" /><node id="669240156" version="1" changeset="4167142" uid="239998" user="Sundance" timestamp="2010-03-19T05:05:22Z" lon="-122.3017346" lat="47.4565945" /><node id="669240158" version="1" changeset="4167142" uid="239998" user="Sundance" timestamp="2010-03-19T05:05:22Z" lon="-122.3019492" lat="47.4565945" /><node id="669240159" version="1" changeset="4167142" uid="239998" user="Sundance" timestamp="2010-03-19T05:05:22Z" lon="-122.3019492" lat="47.456522" /><node id="669240160" version="2" changeset="4167142" uid="239998" user="Sundance" timestamp="2010-03-19T05:05:45Z" lon="-122.3023623" lat="47.456522" /><node id="669240161" version="2" changeset="4167142" uid="239998" user="Sundance" timestamp="2010-03-19T05:05:45Z" lon="-122.3023569" lat="47.4562318" /><node id="669240162" version="1" changeset="4167142" uid="239998" user="Sundance" timestamp="2010-03-19T05:05:22Z" lon="-122.3020672" lat="47.4562282" /><node id="669240163" version="1" changeset="4167142" uid="239998" user="Sundance" timestamp="2010-03-19T05:05:23Z" lon="-122.3020726" lat="47.456123" /><node id="669240164" version="1" changeset="4167142" uid="239998" user="Sundance" timestamp="2010-03-19T05:05:23Z" lon="-122.3017561" lat="47.4561194" /><node id="669240165" version="1" changeset="4167142" uid="239998" user="Sundance" timestamp="2010-03-19T05:05:23Z" lon="-122.3017561" lat="47.4562354" /><node id="669240166" version="1" changeset="4167142" uid="239998" user="Sundance" timestamp="2010-03-19T05:05:23Z" lon="-122.3013216" lat="47.4562391" /><node id="669240167" version="1" changeset="4167142" uid="239998" user="Sundance" timestamp="2010-03-19T05:05:23Z" lon="-122.3013269" lat="47.4567142" /><node id="669240168" version="1" changeset="4167142" uid="239998" user="Sundance" timestamp="2010-03-19T05:05:23Z" lon="-122.3012894" lat="47.4567142" /><node id="669240169" version="1" changeset="4167142" uid="239998" user="Sundance" timestamp="2010-03-19T05:05:23Z" lon="-122.3013001" lat="47.4572655" /><node id="669240170" version="1" changeset="4167142" uid="239998" user="Sundance" timestamp="2010-03-19T05:05:23Z" lon="-122.3014181" lat="47.4572655" /><node id="669240171" version="1" changeset="4167142" uid="239998" user="Sundance" timestamp="2010-03-19T05:05:23Z" lon="-122.3014128" lat="47.4574433" /><node id="669243415" version="2" changeset="4167289" uid="239998" user="Sundance" timestamp="2010-03-19T05:34:09Z" lon="-122.2987496" lat="47.4449265" /><node id="669243549" version="3" changeset="19982552" uid="282329" user="compdude" timestamp="2014-01-14T00:34:31Z" lon="-122.2977535" lat="47.4448071" /><node id="673322694" version="2" changeset="114765100" uid="1408522" user="Omnific" timestamp="2021-12-10T01:30:08Z" lon="-122.3036551" lat="47.4557665" /><node id="673322707" version="2" changeset="114765100" uid="1408522" user="Omnific" timestamp="2021-12-10T01:30:08Z" lon="-122.3037439" lat="47.4557665" /><node id="673322714" version="2" changeset="114765100" uid="1408522" user="Omnific" timestamp="2021-12-10T01:30:08Z" lon="-122.3037439" lat="47.4556928" /><node id="673322728" version="2" changeset="114765100" uid="1408522" user="Omnific" timestamp="2021-12-10T01:30:08Z" lon="-122.3036476" lat="47.4556928" /><node id="673322754" version="2" changeset="114765100" uid="1408522" user="Omnific" timestamp="2021-12-10T01:30:08Z" lon="-122.3036476" lat="47.4556032" /><node id="673322761" version="2" changeset="114765100" uid="1408522" user="Omnific" timestamp="2021-12-10T01:30:08Z" lon="-122.3037432" lat="47.4556032" /><node id="673322781" version="2" changeset="114765100" uid="1408522" user="Omnific" timestamp="2021-12-10T01:30:08Z" lon="-122.3037432" lat="47.4553674" /><node id="673322802" version="2" changeset="114765100" uid="1408522" user="Omnific" timestamp="2021-12-10T01:30:08Z" lon="-122.3036754" lat="47.4553674" /><node id="673322818" version="2" changeset="114765100" uid="1408522" user="Omnific" timestamp="2021-12-10T01:30:08Z" lon="-122.3036754" lat="47.4552837" /><node id="673322836" version="2" changeset="114765100" uid="1408522" user="Omnific" timestamp="2021-12-10T01:30:08Z" lon="-122.3028314" lat="47.4552836" /><node id="673322861" version="2" changeset="114765100" uid="1408522" user="Omnific" timestamp="2021-12-10T01:30:08Z" lon="-122.3028311" lat="47.4558964" /><node id="673322952" version="2" changeset="40831919" uid="3885962" user="Юкатан" timestamp="2016-07-18T19:15:43Z" lon="-122.3014499" lat="47.4556397" /><node id="673322971" version="2" changeset="40831919" uid="3885962" user="Юкатан" timestamp="2016-07-18T19:15:43Z" lon="-122.3019012" lat="47.4556408" /><node id="673322998" version="2" changeset="40831919" uid="3885962" user="Юкатан" timestamp="2016-07-18T19:15:43Z" lon="-122.3019003" lat="47.4554404" /><node id="673323011" version="2" changeset="40831919" uid="3885962" user="Юкатан" timestamp="2016-07-18T19:15:43Z" lon="-122.301303" lat="47.455444" /><node id="673323030" version="2" changeset="40831919" uid="3885962" user="Юкатан" timestamp="2016-07-18T19:15:43Z" lon="-122.3013404" lat="47.4556318" /><node id="673323543" version="2" changeset="114765100" uid="1408522" user="Omnific" timestamp="2021-12-10T01:30:08Z" lon="-122.3030312" lat="47.4532429" /><node id="673323556" version="2" changeset="114765100" uid="1408522" user="Omnific" timestamp="2021-12-10T01:30:08Z" lon="-122.3030328" lat="47.4525142" /><node id="673323576" version="2" changeset="114765100" uid="1408522" user="Omnific" timestamp="2021-12-10T01:30:08Z" lon="-122.3031023" lat="47.4525142" /><node id="673323588" version="2" changeset="114765100" uid="1408522" user="Omnific" timestamp="2021-12-10T01:30:08Z" lon="-122.3031025" lat="47.4523836" /><node id="673323600" version="2" changeset="114765100" uid="1408522" user="Omnific" timestamp="2021-12-10T01:30:08Z" lon="-122.3026351" lat="47.4523832" /><node id="673323611" version="2" changeset="114765100" uid="1408522" user="Omnific" timestamp="2021-12-10T01:30:08Z" lon="-122.3026354" lat="47.452239" /><node id="673323613" version="2" changeset="114765100" uid="1408522" user="Omnific" timestamp="2021-12-10T01:30:08Z" lon="-122.3023372" lat="47.4522387" /><node id="673323614" version="2" changeset="114765100" uid="1408522" user="Omnific" timestamp="2021-12-10T01:30:08Z" lon="-122.3023368" lat="47.4524972" /><node id="673323616" version="2" changeset="114765100" uid="1408522" user="Omnific" timestamp="2021-12-10T01:30:08Z" lon="-122.3024536" lat="47.4524973" /><node id="673323617" version="2" changeset="114765100" uid="1408522" user="Omnific" timestamp="2021-12-10T01:30:08Z" lon="-122.302452" lat="47.4532423" /><node id="673324477" version="3" changeset="47434278" uid="1408522" user="Omnific" timestamp="2017-04-04T07:48:10Z" lon="-122.3009628" lat="47.436706" /><node id="673324482" version="3" changeset="47434278" uid="1408522" user="Omnific" timestamp="2017-04-04T07:48:10Z" lon="-122.3022672" lat="47.4367017" /><node id="673324501" version="3" changeset="47434278" uid="1408522" user="Omnific" timestamp="2017-04-04T07:48:10Z" lon="-122.302264" lat="47.4362601" /><node id="673324521" version="3" changeset="47434278" uid="1408522" user="Omnific" timestamp="2017-04-04T07:48:10Z" lon="-122.3021307" lat="47.4362605" /><node id="673324538" version="3" changeset="47434278" uid="1408522" user="Omnific" timestamp="2017-04-04T07:48:10Z" lon="-122.3021284" lat="47.4359489" /><node id="673324553" version="3" changeset="47434278" uid="1408522" user="Omnific" timestamp="2017-04-04T07:48:10Z" lon="-122.3033806" lat="47.4359448" /><node id="673324579" version="3" changeset="47434278" uid="1408522" user="Omnific" timestamp="2017-04-04T07:48:10Z" lon="-122.3033769" lat="47.4354445" /><node id="673324592" version="3" changeset="47434278" uid="1408522" user="Omnific" timestamp="2017-04-04T07:48:10Z" lon="-122.3028809" lat="47.4354462" /><node id="673324600" version="3" changeset="47434278" uid="1408522" user="Omnific" timestamp="2017-04-04T07:48:10Z" lon="-122.3028805" lat="47.4353939" /><node id="673324605" version="3" changeset="47434278" uid="1408522" user="Omnific" timestamp="2017-04-04T07:48:10Z" lon="-122.3024807" lat="47.4353953" /><node id="673324618" version="4" changeset="102511403" uid="11390451" user="markkerrigan" timestamp="2021-04-08T00:48:28Z" lon="-122.302481" lat="47.4354408"><tag k="addr:city" v="Seatac" /><tag k="addr:housenumber" v="2440" /><tag k="addr:postcode" v="98158" /><tag k="addr:state" v="WA" /><tag k="addr:street" v="South 188th Street" /></node><node id="673324648" version="3" changeset="47434278" uid="1408522" user="Omnific" timestamp="2017-04-04T07:48:10Z" lon="-122.3020019" lat="47.4354424" /><node id="673324667" version="3" changeset="47434278" uid="1408522" user="Omnific" timestamp="2017-04-04T07:48:10Z" lon="-122.3020037" lat="47.4356905" /><node id="673324683" version="3" changeset="47434278" uid="1408522" user="Omnific" timestamp="2017-04-04T07:48:10Z" lon="-122.3016976" lat="47.4356916" /><node id="673324697" version="3" changeset="47434278" uid="1408522" user="Omnific" timestamp="2017-04-04T07:48:10Z" lon="-122.3017004" lat="47.4360725" /><node id="673324712" version="3" changeset="47434278" uid="1408522" user="Omnific" timestamp="2017-04-04T07:48:10Z" lon="-122.3013923" lat="47.4360735" /><node id="673324724" version="3" changeset="47434278" uid="1408522" user="Omnific" timestamp="2017-04-04T07:48:10Z" lon="-122.3013928" lat="47.4361446" /><node id="673324725" version="3" changeset="47434278" uid="1408522" user="Omnific" timestamp="2017-04-04T07:48:10Z" lon="-122.3009587" lat="47.4361461" /><node id="673324774" version="2" changeset="31428504" uid="473104" user="AlaskaDave" timestamp="2015-05-24T20:04:16Z" lon="-122.2995576" lat="47.4355908" /><node id="673324776" version="2" changeset="31428504" uid="473104" user="AlaskaDave" timestamp="2015-05-24T20:04:16Z" lon="-122.2995586" lat="47.4347978" /><node id="673324777" version="2" changeset="31428504" uid="473104" user="AlaskaDave" timestamp="2015-05-24T20:04:16Z" lon="-122.2986866" lat="47.4347973" /><node id="673324779" version="2" changeset="31428504" uid="473104" user="AlaskaDave" timestamp="2015-05-24T20:04:16Z" lon="-122.2986856" lat="47.4355903" /><node id="673324781" version="3" changeset="72150633" uid="1408522" user="Omnific" timestamp="2019-07-11T19:53:06Z" lon="-122.2994756" lat="47.4370246" /><node id="673324783" version="3" changeset="72150633" uid="1408522" user="Omnific" timestamp="2019-07-11T19:53:06Z" lon="-122.2995025" lat="47.4357616" /><node id="673324787" version="3" changeset="72150633" uid="1408522" user="Omnific" timestamp="2019-07-11T19:53:06Z" lon="-122.2983454" lat="47.4357503" /><node id="673324791" version="3" changeset="72150633" uid="1408522" user="Omnific" timestamp="2019-07-11T19:53:06Z" lon="-122.2983321" lat="47.4363727" /><node id="673324792" version="3" changeset="72150633" uid="1408522" user="Omnific" timestamp="2019-07-11T19:53:06Z" lon="-122.2982606" lat="47.436372" /><node id="673324794" version="3" changeset="72150633" uid="1408522" user="Omnific" timestamp="2019-07-11T19:53:06Z" lon="-122.2982505" lat="47.4368462" /><node id="673324795" version="3" changeset="72150633" uid="1408522" user="Omnific" timestamp="2019-07-11T19:53:06Z" lon="-122.2986075" lat="47.4368496" /><node id="673324796" version="3" changeset="72150633" uid="1408522" user="Omnific" timestamp="2019-07-11T19:53:06Z" lon="-122.2986039" lat="47.4370161" /><node id="963568688" version="2" changeset="33840037" uid="2601744" user="sctrojan79" timestamp="2015-09-06T19:13:08Z" lon="-122.3012838" lat="47.443478" /><node id="1138116379" version="4" changeset="29510077" uid="2601744" user="sctrojan79" timestamp="2015-03-16T05:42:40Z" lon="-122.2978059" lat="47.4448894" /><node id="2554680061" version="7" changeset="69925217" uid="1408522" user="Omnific" timestamp="2019-05-06T07:34:00Z" lon="-122.3031205" lat="47.4384842"><tag k="aeroway" v="gate" /><tag k="name" v="S15" /><tag k="ref" v="S15" /></node><node id="3401292552" version="1" changeset="29510077" uid="2601744" user="sctrojan79" timestamp="2015-03-16T05:42:38Z" lon="-122.2977662" lat="47.4448619" /><node id="3401292553" version="1" changeset="29510077" uid="2601744" user="sctrojan79" timestamp="2015-03-16T05:42:38Z" lon="-122.2978461" lat="47.4449172" /><node id="3682806842" version="4" changeset="87036092" uid="9902286" user="di5order" timestamp="2020-06-23T12:53:35Z" lon="-122.2983627" lat="47.4444041"><tag k="amenity" v="parking_entrance" /></node><node id="3732079300" version="1" changeset="33840037" uid="2601744" user="sctrojan79" timestamp="2015-09-06T19:12:56Z" lon="-122.301246" lat="47.4434374" /><node id="3732079303" version="1" changeset="33840037" uid="2601744" user="sctrojan79" timestamp="2015-09-06T19:12:56Z" lon="-122.3013086" lat="47.4435165" /><node id="3732079305" version="1" changeset="33840037" uid="2601744" user="sctrojan79" timestamp="2015-09-06T19:12:56Z" lon="-122.3013254" lat="47.4435568" /><node id="3732079307" version="1" changeset="33840037" uid="2601744" user="sctrojan79" timestamp="2015-09-06T19:12:56Z" lon="-122.3013338" lat="47.4435984" /><node id="3732079311" version="1" changeset="33840037" uid="2601744" user="sctrojan79" timestamp="2015-09-06T19:12:56Z" lon="-122.3013249" lat="47.4436819" /><node id="3732079312" version="1" changeset="33840037" uid="2601744" user="sctrojan79" timestamp="2015-09-06T19:12:56Z" lon="-122.3013078" lat="47.4437222" /><node id="3732079313" version="1" changeset="33840037" uid="2601744" user="sctrojan79" timestamp="2015-09-06T19:12:56Z" lon="-122.3012455" lat="47.4438002" /><node id="4117189908" version="4" changeset="69925217" uid="1408522" user="Omnific" timestamp="2019-05-06T07:34:00Z" lon="-122.3011625" lat="47.438968" /><node id="4117189909" version="4" changeset="69925217" uid="1408522" user="Omnific" timestamp="2019-05-06T07:34:00Z" lon="-122.3011493" lat="47.4389701" /><node id="4297062907" version="5" changeset="86762075" uid="9902286" user="di5order" timestamp="2020-06-17T08:46:23Z" lon="-122.2987608" lat="47.4430767" /><node id="4309770250" version="1" changeset="40831919" uid="3885962" user="Юкатан" timestamp="2016-07-18T19:15:42Z" lon="-122.3013217" lat="47.4555294" /><node id="4309770251" version="1" changeset="40831919" uid="3885962" user="Юкатан" timestamp="2016-07-18T19:15:42Z" lon="-122.3013386" lat="47.4555293" /><node id="4309770252" version="1" changeset="40831919" uid="3885962" user="Юкатан" timestamp="2016-07-18T19:15:42Z" lon="-122.301296" lat="47.4558094" /><node id="4309770253" version="1" changeset="40831919" uid="3885962" user="Юкатан" timestamp="2016-07-18T19:15:42Z" lon="-122.3012747" lat="47.4556867" /><node id="4309770254" version="1" changeset="40831919" uid="3885962" user="Юкатан" timestamp="2016-07-18T19:15:42Z" lon="-122.3014886" lat="47.4557092" /><node id="4309770255" version="1" changeset="40831919" uid="3885962" user="Юкатан" timestamp="2016-07-18T19:15:42Z" lon="-122.3012501" lat="47.4557488" /><node id="4309770256" version="1" changeset="40831919" uid="3885962" user="Юкатан" timestamp="2016-07-18T19:15:42Z" lon="-122.3014647" lat="47.455753" /><node id="4309770257" version="1" changeset="40831919" uid="3885962" user="Юкатан" timestamp="2016-07-18T19:15:42Z" lon="-122.3013615" lat="47.4558098" /><node id="4309770258" version="1" changeset="40831919" uid="3885962" user="Юкатан" timestamp="2016-07-18T19:15:42Z" lon="-122.3012573" lat="47.4557827" /><node id="4309770259" version="1" changeset="40831919" uid="3885962" user="Юкатан" timestamp="2016-07-18T19:15:42Z" lon="-122.3013014" lat="47.4556545" /><node id="4309770260" version="1" changeset="40831919" uid="3885962" user="Юкатан" timestamp="2016-07-18T19:15:42Z" lon="-122.3014815" lat="47.4556682" /><node id="4309770261" version="1" changeset="40831919" uid="3885962" user="Юкатан" timestamp="2016-07-18T19:15:42Z" lon="-122.3017844" lat="47.4554411" /><node id="4309770262" version="1" changeset="40831919" uid="3885962" user="Юкатан" timestamp="2016-07-18T19:15:42Z" lon="-122.3017358" lat="47.4554414" /><node id="4309770263" version="1" changeset="40831919" uid="3885962" user="Юкатан" timestamp="2016-07-18T19:15:42Z" lon="-122.3017751" lat="47.4554243" /><node id="4309770264" version="1" changeset="40831919" uid="3885962" user="Юкатан" timestamp="2016-07-18T19:15:42Z" lon="-122.3017362" lat="47.455425" /><node id="4357010073" version="3" changeset="69925217" uid="1408522" user="Omnific" timestamp="2019-05-06T07:34:00Z" lon="-122.3024427" lat="47.4385353"><tag k="aeroway" v="gate" /></node><node id="4357010078" version="3" changeset="69925217" uid="1408522" user="Omnific" timestamp="2019-05-06T07:34:00Z" lon="-122.3019882" lat="47.4392403" /><node id="4357010079" version="3" changeset="69925217" uid="1408522" user="Omnific" timestamp="2019-05-06T07:34:00Z" lon="-122.3019405" lat="47.4391007" /><node id="4357010080" version="3" changeset="69925217" uid="1408522" user="Omnific" timestamp="2019-05-06T07:34:00Z" lon="-122.3016718" lat="47.4392897" /><node id="4357010081" version="3" changeset="69925217" uid="1408522" user="Omnific" timestamp="2019-05-06T07:34:00Z" lon="-122.3016238" lat="47.4391491" /><node id="4419737950" version="2" changeset="86762020" uid="9902286" user="di5order" timestamp="2020-06-17T08:45:20Z" lon="-122.2977473" lat="47.4423788" /><node id="4419737969" version="2" changeset="86762020" uid="9902286" user="di5order" timestamp="2020-06-17T08:45:20Z" lon="-122.2979877" lat="47.4425459" /><node id="4419737990" version="1" changeset="42459499" uid="1408522" user="Omnific" timestamp="2016-09-27T01:54:31Z" lon="-122.298344" lat="47.4427947" /><node id="4419737998" version="1" changeset="42459499" uid="1408522" user="Omnific" timestamp="2016-09-27T01:54:31Z" lon="-122.2985904" lat="47.4429614" /><node id="4419738003" version="1" changeset="42459499" uid="1408522" user="Omnific" timestamp="2016-09-27T01:54:31Z" lon="-122.2987074" lat="47.4430406" /><node id="4419738021" version="1" changeset="42459499" uid="1408522" user="Omnific" timestamp="2016-09-27T01:54:32Z" lon="-122.2989478" lat="47.4432032" /><node id="4419738037" version="1" changeset="42459499" uid="1408522" user="Omnific" timestamp="2016-09-27T01:54:32Z" lon="-122.299072" lat="47.4433301" /><node id="4419738059" version="1" changeset="42459499" uid="1408522" user="Omnific" timestamp="2016-09-27T01:54:32Z" lon="-122.2990652" lat="47.4435659" /><node id="4419738064" version="1" changeset="42459499" uid="1408522" user="Omnific" timestamp="2016-09-27T01:54:32Z" lon="-122.2990625" lat="47.4436591" /><node id="4419738091" version="1" changeset="42459499" uid="1408522" user="Omnific" timestamp="2016-09-27T01:54:32Z" lon="-122.2990558" lat="47.4438922" /><node id="4419738108" version="1" changeset="42459499" uid="1408522" user="Omnific" timestamp="2016-09-27T01:54:33Z" lon="-122.298943" lat="47.4440141" /><node id="4419738126" version="1" changeset="42459499" uid="1408522" user="Omnific" timestamp="2016-09-27T01:54:33Z" lon="-122.2986966" lat="47.4441799" /><node id="4419738137" version="1" changeset="42459499" uid="1408522" user="Omnific" timestamp="2016-09-27T01:54:33Z" lon="-122.2985789" lat="47.4442591" /><node id="4419738151" version="4" changeset="87036092" uid="9902286" user="di5order" timestamp="2020-06-23T12:53:35Z" lon="-122.2982683" lat="47.4444665"><tag k="amenity" v="parking_entrance" /></node><node id="4419738153" version="1" changeset="42459499" uid="1408522" user="Omnific" timestamp="2016-09-27T01:54:33Z" lon="-122.2983335" lat="47.4444236" /><node id="4419738163" version="1" changeset="42459499" uid="1408522" user="Omnific" timestamp="2016-09-27T01:54:33Z" lon="-122.2979664" lat="47.4446651" /><node id="4604964850" version="5" changeset="87036115" uid="9902286" user="di5order" timestamp="2020-06-23T12:54:17Z" lon="-122.299404" lat="47.4449277"><tag k="access" v="yes" /><tag k="amenity" v="parking_entrance" /></node><node id="4604964851" version="3" changeset="87036115" uid="9902286" user="di5order" timestamp="2020-06-23T12:54:17Z" lon="-122.299119" lat="47.4449226"><tag k="amenity" v="parking_entrance" /></node><node id="4604964852" version="3" changeset="91691605" uid="11249764" user="ashybko_lyft" timestamp="2020-09-29T08:37:37Z" lon="-122.2992015" lat="47.4420335"><tag k="amenity" v="parking_entrance" /></node><node id="4728618105" version="1" changeset="46753124" uid="3178375" user="LeTopographeFou" timestamp="2017-03-11T00:52:34Z" lon="-122.2994992" lat="47.4347978" /><node id="4728618107" version="2" changeset="47434278" uid="1408522" user="Omnific" timestamp="2017-04-04T07:48:10Z" lon="-122.3011679" lat="47.4361454" /><node id="4728618126" version="2" changeset="47434278" uid="1408522" user="Omnific" timestamp="2017-04-04T07:48:10Z" lon="-122.302807" lat="47.4353942" /><node id="4728618130" version="1" changeset="46753124" uid="3178375" user="LeTopographeFou" timestamp="2017-03-11T00:52:35Z" lon="-122.2989987" lat="47.4355905" /><node id="4728618131" version="2" changeset="72150633" uid="1408522" user="Omnific" timestamp="2019-07-11T19:53:06Z" lon="-122.2989953" lat="47.4357566" /><node id="6380264892" version="3" changeset="87036115" uid="9902286" user="di5order" timestamp="2020-06-23T12:54:17Z" lon="-122.2994547" lat="47.4449257"><tag k="amenity" v="parking_entrance" /></node><node id="6448890683" version="3" changeset="127725598" uid="10907417" user="Emey_lyft" timestamp="2022-10-18T12:42:16Z" lon="-122.3026911" lat="47.4490619"><tag k="aeroway" v="gate" /><tag k="name" v="N20" /><tag k="ref" v="N20" /></node><node id="6448890684" version="3" changeset="127725598" uid="10907417" user="Emey_lyft" timestamp="2022-10-18T12:42:16Z" lon="-122.3028294" lat="47.4491418"><tag k="aeroway" v="gate" /><tag k="name" v="N19" /><tag k="ref" v="N19" /></node><node id="6448895485" version="2" changeset="118147792" uid="1408522" user="Omnific" timestamp="2022-03-06T06:32:39Z" lon="-122.3035654" lat="47.4493188"><tag k="aeroway" v="gate" /><tag k="name" v="N16" /><tag k="ref" v="N16" /></node><node id="6448895486" version="2" changeset="118147792" uid="1408522" user="Omnific" timestamp="2022-03-06T06:32:39Z" lon="-122.3037452" lat="47.4491764"><tag k="aeroway" v="gate" /><tag k="name" v="N15" /><tag k="ref" v="N15" /></node><node id="6448895487" version="2" changeset="118147792" uid="1408522" user="Omnific" timestamp="2022-03-06T06:32:39Z" lon="-122.3038858" lat="47.4490651"><tag k="aeroway" v="gate" /><tag k="name" v="N14" /><tag k="ref" v="N14" /></node><node id="6448895488" version="2" changeset="127725598" uid="10907417" user="Emey_lyft" timestamp="2022-10-18T12:42:16Z" lon="-122.3037744" lat="47.4489496"><tag k="aeroway" v="gate" /><tag k="name" v="N13" /><tag k="ref" v="N13" /></node><node id="6448895495" version="2" changeset="118147792" uid="1408522" user="Omnific" timestamp="2022-03-06T06:32:39Z" lon="-122.3031121" lat="47.4493052" /><node id="6448895498" version="2" changeset="118147792" uid="1408522" user="Omnific" timestamp="2022-03-06T06:32:39Z" lon="-122.3031743" lat="47.4493412" /><node id="6448895499" version="2" changeset="118147792" uid="1408522" user="Omnific" timestamp="2022-03-06T06:32:39Z" lon="-122.3030389" lat="47.4492629" /><node id="6448895502" version="2" changeset="118147792" uid="1408522" user="Omnific" timestamp="2022-03-06T06:32:39Z" lon="-122.3029632" lat="47.4492192" /><node id="6448895504" version="2" changeset="118147792" uid="1408522" user="Omnific" timestamp="2022-03-06T06:32:39Z" lon="-122.3028512" lat="47.4491545" /><node id="6448895523" version="2" changeset="118147792" uid="1408522" user="Omnific" timestamp="2022-03-06T06:32:39Z" lon="-122.3037146" lat="47.4489147" /><node id="6448895534" version="2" changeset="118147792" uid="1408522" user="Omnific" timestamp="2022-03-06T06:32:39Z" lon="-122.3033865" lat="47.448725" /><node id="6448895561" version="2" changeset="118147792" uid="1408522" user="Omnific" timestamp="2022-03-06T06:32:39Z" lon="-122.3019413" lat="47.4486885" /><node id="6448895562" version="2" changeset="118147792" uid="1408522" user="Omnific" timestamp="2022-03-06T06:32:39Z" lon="-122.301991" lat="47.4486492" /><node id="6448895587" version="3" changeset="127725598" uid="10907417" user="Emey_lyft" timestamp="2022-10-18T12:42:16Z" lon="-122.3013527" lat="47.4480417"><tag k="aeroway" v="gate" /><tag k="name" v="N5" /><tag k="ref" v="N5" /></node><node id="6448895607" version="2" changeset="118147792" uid="1408522" user="Omnific" timestamp="2022-03-06T06:32:39Z" lon="-122.3026491" lat="47.4490377" /><node id="6448895611" version="2" changeset="118147792" uid="1408522" user="Omnific" timestamp="2022-03-06T06:32:39Z" lon="-122.3026053" lat="47.4490723" /><node id="6448927161" version="2" changeset="118147792" uid="1408522" user="Omnific" timestamp="2022-03-06T06:32:39Z" lon="-122.3032404" lat="47.4493794"><tag k="aeroway" v="gate" /><tag k="name" v="N18" /><tag k="ref" v="N18" /></node><node id="6448927162" version="2" changeset="118147792" uid="1408522" user="Omnific" timestamp="2022-03-06T06:32:39Z" lon="-122.303428" lat="47.4494275"><tag k="aeroway" v="gate" /><tag k="name" v="N17" /><tag k="ref" v="N17" /></node><node id="6451360909" version="1" changeset="69925217" uid="1408522" user="Omnific" timestamp="2019-05-06T07:33:57Z" lon="-122.3031714" lat="47.4386334" /><node id="6451360912" version="1" changeset="69925217" uid="1408522" user="Omnific" timestamp="2019-05-06T07:33:57Z" lon="-122.3032053" lat="47.4387329" /><node id="6451360918" version="1" changeset="69925217" uid="1408522" user="Omnific" timestamp="2019-05-06T07:33:57Z" lon="-122.3024519" lat="47.4385339" /><node id="6451360919" version="1" changeset="69925217" uid="1408522" user="Omnific" timestamp="2019-05-06T07:33:57Z" lon="-122.3027582" lat="47.4384861" /><node id="6773287819" version="2" changeset="86762020" uid="9902286" user="di5order" timestamp="2020-06-17T08:45:20Z" lon="-122.2977814" lat="47.4423965" /><node id="6773287820" version="1" changeset="74107113" uid="8168739" user="Anu_Zade" timestamp="2019-09-05T00:02:21Z" lon="-122.298529" lat="47.4429187" /><node id="6773287821" version="1" changeset="74107113" uid="8168739" user="Anu_Zade" timestamp="2019-09-05T00:02:21Z" lon="-122.2985028" lat="47.442901" /><node id="6773287822" version="1" changeset="74107113" uid="8168739" user="Anu_Zade" timestamp="2019-09-05T00:02:21Z" lon="-122.2984498" lat="47.4428654" /><node id="6773287823" version="1" changeset="74107113" uid="8168739" user="Anu_Zade" timestamp="2019-09-05T00:02:21Z" lon="-122.2985529" lat="47.442935" /><node id="6773287825" version="1" changeset="74107113" uid="8168739" user="Anu_Zade" timestamp="2019-09-05T00:02:21Z" lon="-122.2990957" lat="47.444922" /><node id="6773287826" version="1" changeset="74107113" uid="8168739" user="Anu_Zade" timestamp="2019-09-05T00:02:21Z" lon="-122.2993728" lat="47.4449289" /><node id="6773287835" version="1" changeset="74107113" uid="8168739" user="Anu_Zade" timestamp="2019-09-05T00:02:21Z" lon="-122.2990765" lat="47.4419577" /><node id="6773287836" version="1" changeset="74107113" uid="8168739" user="Anu_Zade" timestamp="2019-09-05T00:02:21Z" lon="-122.2990161" lat="47.4419114" /><node id="6773287837" version="1" changeset="74107113" uid="8168739" user="Anu_Zade" timestamp="2019-09-05T00:02:21Z" lon="-122.2988887" lat="47.4418207" /><node id="6773287838" version="1" changeset="74107113" uid="8168739" user="Anu_Zade" timestamp="2019-09-05T00:02:21Z" lon="-122.2991649" lat="47.4420088" /><node id="6773291721" version="2" changeset="91691605" uid="11249764" user="ashybko_lyft" timestamp="2020-09-29T08:37:37Z" lon="-122.2977371" lat="47.4416363"><tag k="amenity" v="parking_entrance" /></node><node id="6773291731" version="2" changeset="91691605" uid="11249764" user="ashybko_lyft" timestamp="2020-09-29T08:37:37Z" lon="-122.2984679" lat="47.4416372"><tag k="amenity" v="parking_entrance" /></node><node id="7626207895" version="2" changeset="117963974" uid="11390451" user="markkerrigan" timestamp="2022-03-01T01:48:01Z" lon="-122.297945" lat="47.4449235" /><node id="8067391587" version="2" changeset="114765100" uid="1408522" user="Omnific" timestamp="2021-12-10T01:30:08Z" lon="-122.302602" lat="47.4532425" /><node id="8067391614" version="2" changeset="114765100" uid="1408522" user="Omnific" timestamp="2021-12-10T01:30:08Z" lon="-122.3037439" lat="47.4557533" /><node id="8105455635" version="1" changeset="93890244" uid="1408522" user="Omnific" timestamp="2020-11-11T01:37:01Z" lon="-122.3010929" lat="47.4388046" /><node id="8105455644" version="1" changeset="93890244" uid="1408522" user="Omnific" timestamp="2020-11-11T01:37:01Z" lon="-122.3011139" lat="47.4388662" /><node id="8212332231" version="2" changeset="114765100" uid="1408522" user="Omnific" timestamp="2021-12-10T01:30:08Z" lon="-122.3028313" lat="47.455501" /><node id="8212332258" version="1" changeset="95595500" uid="11390451" user="markkerrigan" timestamp="2020-12-10T07:15:40Z" lon="-122.3023567" lat="47.456264" /><node id="8212332261" version="1" changeset="95595500" uid="11390451" user="markkerrigan" timestamp="2020-12-10T07:15:40Z" lon="-122.3014655" lat="47.4574428" /><node id="8600864368" version="2" changeset="114765100" uid="1408522" user="Omnific" timestamp="2021-12-10T01:30:08Z" lon="-122.3036551" lat="47.4558966" /><node id="8600879746" version="2" changeset="114765100" uid="1408522" user="Omnific" timestamp="2021-12-10T01:30:08Z" lon="-122.301415" lat="47.4557913" /><node id="8600879748" version="2" changeset="114765100" uid="1408522" user="Omnific" timestamp="2021-12-10T01:30:08Z" lon="-122.301831" lat="47.4574396" /><node id="8604389933" version="1" changeset="102511403" uid="11390451" user="markkerrigan" timestamp="2021-04-08T00:48:28Z" lon="-122.2986855" lat="47.4351765"><tag k="addr:city" v="Seatac" /><tag k="addr:housenumber" v="18627" /><tag k="addr:postcode" v="98158" /><tag k="addr:state" v="WA" /><tag k="addr:street" v="28th Avenue South" /><tag k="name" v="Building 188J" /></node><node id="8604389934" version="1" changeset="102511403" uid="11390451" user="markkerrigan" timestamp="2021-04-08T00:48:28Z" lon="-122.2983335" lat="47.4363031"><tag k="addr:city" v="Seatac" /><tag k="addr:housenumber" v="18601" /><tag k="addr:postcode" v="98158" /><tag k="addr:state" v="WA" /><tag k="addr:street" v="28th Avenue South" /></node><node id="8604389935" version="1" changeset="102511403" uid="11390451" user="markkerrigan" timestamp="2021-04-08T00:48:28Z" lon="-122.3014869" lat="47.4360732"><tag k="addr:city" v="Seatac" /><tag k="addr:housenumber" v="18650" /><tag k="addr:postcode" v="98158" /><tag k="addr:state" v="WA" /><tag k="addr:street" v="Alaska Service Road" /></node><node id="8963035089" version="1" changeset="108889854" uid="12195744" user="pmarkina_lyft" timestamp="2021-07-30T12:06:27Z" lon="-122.2977356" lat="47.444853"><tag k="amenity" v="parking_entrance" /></node><node id="9546255004" version="1" changeset="117964032" uid="11390451" user="markkerrigan" timestamp="2022-03-01T01:51:20Z" lon="-122.302397" lat="47.4522388" /><node id="9546272658" version="1" changeset="117963974" uid="11390451" user="markkerrigan" timestamp="2022-03-01T01:48:01Z" lon="-122.2978741" lat="47.4449233" /><node id="9557167516" version="3" changeset="127725598" uid="10907417" user="Emey_lyft" timestamp="2022-10-18T12:42:16Z" lon="-122.303369" lat="47.4487154"><tag k="aeroway" v="gate" /><tag k="name" v="N12" /><tag k="ref" v="N12" /></node><node id="9557171254" version="1" changeset="118147191" uid="1408522" user="Omnific" timestamp="2022-03-06T05:40:51Z" lon="-122.3011038" lat="47.4388392" /><node id="9557176317" version="3" changeset="127725598" uid="10907417" user="Emey_lyft" timestamp="2022-10-18T12:42:16Z" lon="-122.3031703" lat="47.4485306"><tag k="aeroway" v="gate" /><tag k="name" v="N11" /><tag k="ref" v="N11" /></node><node id="9557176319" version="3" changeset="127725598" uid="10907417" user="Emey_lyft" timestamp="2022-10-18T12:42:16Z" lon="-122.302636" lat="47.4482197"><tag k="aeroway" v="gate" /><tag k="name" v="N10" /><tag k="ref" v="N10" /></node><node id="9557215028" version="1" changeset="118147792" uid="1408522" user="Omnific" timestamp="2022-03-06T06:32:39Z" lon="-122.3031573" lat="47.4485229" /><node id="9557215033" version="1" changeset="118147792" uid="1408522" user="Omnific" timestamp="2022-03-06T06:32:39Z" lon="-122.3032286" lat="47.4485641" /><node id="9557215061" version="2" changeset="127725598" uid="10907417" user="Emey_lyft" timestamp="2022-10-18T12:42:16Z" lon="-122.3019417" lat="47.4486183"><tag k="aeroway" v="gate" /><tag k="name" v="N1" /><tag k="ref" v="N1" /></node><node id="9557215067" version="1" changeset="118147792" uid="1408522" user="Omnific" timestamp="2022-03-06T06:32:39Z" lon="-122.3013899" lat="47.4483018" /><node id="9557215069" version="1" changeset="118147792" uid="1408522" user="Omnific" timestamp="2022-03-06T06:32:39Z" lon="-122.301539" lat="47.448388" /><node id="9557215070" version="1" changeset="118147792" uid="1408522" user="Omnific" timestamp="2022-03-06T06:32:39Z" lon="-122.3016397" lat="47.4484462" /><node id="9557215075" version="1" changeset="118147792" uid="1408522" user="Omnific" timestamp="2022-03-06T06:32:39Z" lon="-122.3017897" lat="47.4485329" /><node id="9557215087" version="1" changeset="118147792" uid="1408522" user="Omnific" timestamp="2022-03-06T06:32:39Z" lon="-122.3019216" lat="47.4478815" /><node id="9557215090" version="1" changeset="118147792" uid="1408522" user="Omnific" timestamp="2022-03-06T06:32:39Z" lon="-122.3020479" lat="47.4479545" /><node id="9557215111" version="1" changeset="118147792" uid="1408522" user="Omnific" timestamp="2022-03-06T06:32:39Z" lon="-122.3021408" lat="47.4480081" /><node id="9557215114" version="1" changeset="118147792" uid="1408522" user="Omnific" timestamp="2022-03-06T06:32:39Z" lon="-122.3022844" lat="47.4480912" /><node id="9557215116" version="1" changeset="118147792" uid="1408522" user="Omnific" timestamp="2022-03-06T06:32:39Z" lon="-122.3023187" lat="47.448111" /><node id="9557215190" version="1" changeset="118147792" uid="1408522" user="Omnific" timestamp="2022-03-06T06:32:39Z" lon="-122.3031468" lat="47.4485168" /><node id="9557215197" version="1" changeset="118147792" uid="1408522" user="Omnific" timestamp="2022-03-06T06:32:39Z" lon="-122.3032449" lat="47.4485735" /><node id="9557215198" version="1" changeset="118147792" uid="1408522" user="Omnific" timestamp="2022-03-06T06:32:39Z" lon="-122.3020276" lat="47.4487384" /><node id="9557215227" version="1" changeset="118147792" uid="1408522" user="Omnific" timestamp="2022-03-06T06:32:39Z" lon="-122.3025156" lat="47.4490204" /><node id="9557215229" version="1" changeset="118147792" uid="1408522" user="Omnific" timestamp="2022-03-06T06:32:39Z" lon="-122.302444" lat="47.4481834" /><node id="9557215230" version="1" changeset="118147792" uid="1408522" user="Omnific" timestamp="2022-03-06T06:32:39Z" lon="-122.3024971" lat="47.4481414" /><node id="9557215231" version="1" changeset="118147792" uid="1408522" user="Omnific" timestamp="2022-03-06T06:32:39Z" lon="-122.3033285" lat="47.4486219" /><node id="9557215232" version="1" changeset="118147792" uid="1408522" user="Omnific" timestamp="2022-03-06T06:32:39Z" lon="-122.3032776" lat="47.4486621" /><node id="9557215233" version="1" changeset="118147792" uid="1408522" user="Omnific" timestamp="2022-03-06T06:32:39Z" lon="-122.3039234" lat="47.4490353" /><node id="9557215234" version="1" changeset="118147792" uid="1408522" user="Omnific" timestamp="2022-03-06T06:32:39Z" lon="-122.3037221" lat="47.4491946" /><node id="9557215235" version="1" changeset="118147792" uid="1408522" user="Omnific" timestamp="2022-03-06T06:32:39Z" lon="-122.3037464" lat="47.4492087" /><node id="9557215236" version="1" changeset="118147792" uid="1408522" user="Omnific" timestamp="2022-03-06T06:32:39Z" lon="-122.3036103" lat="47.4493164" /><node id="9557215237" version="1" changeset="118147792" uid="1408522" user="Omnific" timestamp="2022-03-06T06:32:39Z" lon="-122.3035861" lat="47.4493024" /><node id="9557215238" version="1" changeset="118147792" uid="1408522" user="Omnific" timestamp="2022-03-06T06:32:39Z" lon="-122.303384" lat="47.4494624" /><node id="10111300120" version="1" changeset="127725598" uid="10907417" user="Emey_lyft" timestamp="2022-10-18T12:42:16Z" lon="-122.3018084" lat="47.4485438" /><way id="23660961" version="36" changeset="117963974" uid="11390451" user="markkerrigan" timestamp="2022-03-01T01:48:01Z"><nd ref="256348281" /><nd ref="3732079300" /><nd ref="963568688" /><nd ref="3732079303" /><nd ref="3732079305" /><nd ref="3732079307" /><nd ref="256348282" /><nd ref="3732079311" /><nd ref="3732079312" /><nd ref="430538365" /><nd ref="3732079313" /><nd ref="256348283" /><nd ref="430538363" /><nd ref="430538361" /><nd ref="256348350" /><nd ref="6380264892" /><nd ref="4604964850" /><nd ref="6773287826" /><nd ref="4604964851" /><nd ref="6773287825" /><nd ref="669243415" /><nd ref="7626207895" /><nd ref="9546272658" /><nd ref="256348274" /><nd ref="3401292553" /><nd ref="1138116379" /><nd ref="3401292552" /><nd ref="8963035089" /><nd ref="256348275" /><nd ref="669243549" /><nd ref="4419738163" /><nd ref="4419738151" /><nd ref="4419738153" /><nd ref="3682806842" /><nd ref="4419738137" /><nd ref="4419738126" /><nd ref="4419738108" /><nd ref="256348276" /><nd ref="4419738091" /><nd ref="4419738064" /><nd ref="4419738059" /><nd ref="4419738037" /><nd ref="256348277" /><nd ref="4419738021" /><nd ref="4297062907" /><nd ref="4419738003" /><nd ref="4419737998" /><nd ref="6773287823" /><nd ref="6773287820" /><nd ref="6773287821" /><nd ref="6773287822" /><nd ref="4419737990" /><nd ref="4419737969" /><nd ref="6773287819" /><nd ref="4419737950" /><nd ref="256348278" /><nd ref="256348279" /><nd ref="6773291721" /><nd ref="6773291731" /><nd ref="256348280" /><nd ref="6773287837" /><nd ref="6773287836" /><nd ref="6773287835" /><nd ref="6773287838" /><nd ref="4604964852" /><nd ref="430538370" /><nd ref="430538369" /><nd ref="256348281" /><tag k="access" v="yes" /><tag k="amenity" v="parking" /><tag k="building" v="parking" /><tag k="building:levels" v="7" /><tag k="fee" v="yes" /><tag k="name" v="Sea-Tac Airport Parking Garage" /><tag k="parking" v="multi-storey" /></way><way id="23772636" version="13" changeset="127725598" uid="10907417" user="Emey_lyft" timestamp="2022-10-18T12:42:16Z"><nd ref="257569913" /><nd ref="460248750" /><nd ref="9557215087" /><nd ref="9557215090" /><nd ref="9557215111" /><nd ref="9557215114" /><nd ref="9557215116" /><nd ref="460248758" /><nd ref="9557215229" /><nd ref="9557215230" /><nd ref="9557176319" /><nd ref="9557215190" /><nd ref="9557215028" /><nd ref="9557176317" /><nd ref="9557215033" /><nd ref="9557215197" /><nd ref="9557215231" /><nd ref="9557215232" /><nd ref="9557167516" /><nd ref="6448895534" /><nd ref="6448895523" /><nd ref="6448895488" /><nd ref="9557215233" /><nd ref="6448895487" /><nd ref="6448895486" /><nd ref="9557215234" /><nd ref="9557215235" /><nd ref="9557215236" /><nd ref="9557215237" /><nd ref="6448895485" /><nd ref="6448927162" /><nd ref="9557215238" /><nd ref="6448927161" /><nd ref="6448895498" /><nd ref="6448895495" /><nd ref="6448895499" /><nd ref="6448895502" /><nd ref="6448895504" /><nd ref="6448890684" /><nd ref="6448890683" /><nd ref="6448895607" /><nd ref="6448895611" /><nd ref="9557215227" /><nd ref="9557215198" /><nd ref="6448895561" /><nd ref="6448895562" /><nd ref="9557215061" /><nd ref="10111300120" /><nd ref="9557215075" /><nd ref="9557215070" /><nd ref="9557215069" /><nd ref="9557215067" /><nd ref="460248811" /><nd ref="257569912" /><nd ref="460248724" /><nd ref="6448895587" /><nd ref="460248735" /><nd ref="460248743" /><nd ref="257569913" /><tag k="aeroway" v="terminal" /><tag k="building" v="yes" /><tag k="building:levels" v="2" /><tag k="name" v="Sea-Tac Airport North Satellite" /></way><way id="23772637" version="16" changeset="118147191" uid="1408522" user="Omnific" timestamp="2022-03-06T05:40:51Z"><nd ref="460249725" /><nd ref="4357010079" /><nd ref="4357010078" /><nd ref="4357010080" /><nd ref="4357010081" /><nd ref="460249658" /><nd ref="460249651" /><nd ref="257569917" /><nd ref="4117189908" /><nd ref="4117189909" /><nd ref="460249643" /><nd ref="460249634" /><nd ref="8105455644" /><nd ref="9557171254" /><nd ref="8105455635" /><nd ref="257569918" /><nd ref="460249625" /><nd ref="460249662" /><nd ref="460249671" /><nd ref="460249680" /><nd ref="4357010073" /><nd ref="6451360918" /><nd ref="6451360919" /><nd ref="460249730" /><nd ref="257569919" /><nd ref="460249689" /><nd ref="2554680061" /><nd ref="6451360909" /><nd ref="6451360912" /><nd ref="460249700" /><nd ref="460249708" /><nd ref="257569916" /><nd ref="460249717" /><nd ref="460249725" /><tag k="aeroway" v="terminal" /><tag k="alt_name" v="S Gates" /><tag k="building" v="transportation" /><tag k="building:levels" v="2" /><tag k="internet_access" v="wlan" /><tag k="internet_access:fee" v="no" /><tag k="name" v="Sea-Tac Airport South Satellite" /></way><way id="52735107" version="4" changeset="114765100" uid="1408522" user="Omnific" timestamp="2021-12-10T01:30:08Z"><nd ref="8600879748" /><nd ref="669240154" /><nd ref="669240155" /><nd ref="669240156" /><nd ref="669240158" /><nd ref="669240159" /><nd ref="669240160" /><nd ref="8212332258" /><nd ref="669240161" /><nd ref="669240162" /><nd ref="669240163" /><nd ref="669240164" /><nd ref="669240165" /><nd ref="669240166" /><nd ref="669240167" /><nd ref="669240168" /><nd ref="669240169" /><nd ref="669240170" /><nd ref="669240171" /><nd ref="8212332261" /><nd ref="8600879748" /><tag k="addr:city" v="Seatac" /><tag k="addr:housenumber" v="2600" /><tag k="addr:postcode" v="98158" /><tag k="addr:state" v="WA" /><tag k="addr:street" v="South 165th Street" /><tag k="addr:unit" v="165A" /><tag k="building" v="warehouse" /><tag k="name" v="Alaska Airlines Cargo" /></way><way id="53199551" version="5" changeset="114765100" uid="1408522" user="Omnific" timestamp="2021-12-10T01:30:08Z"><nd ref="8600864368" /><nd ref="673322694" /><nd ref="673322707" /><nd ref="8067391614" /><nd ref="673322714" /><nd ref="673322728" /><nd ref="673322754" /><nd ref="673322761" /><nd ref="673322781" /><nd ref="673322802" /><nd ref="673322818" /><nd ref="673322836" /><nd ref="8212332231" /><nd ref="673322861" /><nd ref="8600864368" /><tag k="addr:city" v="Seatac" /><tag k="addr:housenumber" v="2380" /><tag k="addr:postcode" v="98158" /><tag k="addr:state" v="WA" /><tag k="addr:street" v="South 166th Street" /><tag k="addr:unit" v="166B" /><tag k="building" v="warehouse" /><tag k="name" v="WFS Express" /></way><way id="53199557" version="3" changeset="114765100" uid="1408522" user="Omnific" timestamp="2021-12-10T01:30:08Z"><nd ref="8600879746" /><nd ref="4309770256" /><nd ref="4309770254" /><nd ref="4309770260" /><nd ref="673322952" /><nd ref="673322971" /><nd ref="673322998" /><nd ref="4309770261" /><nd ref="4309770263" /><nd ref="4309770264" /><nd ref="4309770262" /><nd ref="673323011" /><nd ref="4309770250" /><nd ref="4309770251" /><nd ref="673323030" /><nd ref="4309770259" /><nd ref="4309770253" /><nd ref="4309770255" /><nd ref="4309770258" /><nd ref="4309770252" /><nd ref="4309770257" /><nd ref="8600879746" /><tag k="addr:city" v="Seatac" /><tag k="addr:housenumber" v="2440" /><tag k="addr:postcode" v="98158" /><tag k="addr:state" v="WA" /><tag k="addr:street" v="South 166th Street" /><tag k="addr:unit" v="166C" /><tag k="building" v="yes" /><tag k="source" v="yahoo_wms" /></way><way id="53199562" version="7" changeset="117964032" uid="11390451" user="markkerrigan" timestamp="2022-03-01T01:51:20Z"><nd ref="673323543" /><nd ref="673323556" /><nd ref="673323576" /><nd ref="673323588" /><nd ref="673323600" /><nd ref="673323611" /><nd ref="9546255004" /><nd ref="673323613" /><nd ref="673323614" /><nd ref="673323616" /><nd ref="673323617" /><nd ref="8067391587" /><nd ref="673323543" /><tag k="addr:city" v="SeaTac" /><tag k="addr:housenumber" v="16745" /><tag k="addr:postcode" v="98158" /><tag k="addr:state" v="WA" /><tag k="addr:street" v="Air Cargo Road" /><tag k="addr:unit" v="167A" /><tag k="building" v="warehouse" /><tag k="name" v="Swissport Cargo" /><tag k="source" v="yahoo_wms" /></way><way id="53199583" version="9" changeset="102511403" uid="11390451" user="markkerrigan" timestamp="2021-04-08T00:48:28Z"><nd ref="673324477" /><nd ref="673324482" /><nd ref="673324501" /><nd ref="673324521" /><nd ref="673324538" /><nd ref="673324553" /><nd ref="673324579" /><nd ref="673324592" /><nd ref="673324600" /><nd ref="4728618126" /><nd ref="673324605" /><nd ref="673324618" /><nd ref="673324648" /><nd ref="673324667" /><nd ref="673324683" /><nd ref="673324697" /><nd ref="8604389935" /><nd ref="673324712" /><nd ref="673324724" /><nd ref="4728618107" /><nd ref="673324725" /><nd ref="673324477" /><tag k="aeroway" v="hangar" /><tag k="building" v="yes" /><tag k="building:levels" v="3" /><tag k="name" v="Alaska Airlines Maintenance &amp; Engineering" /></way><way id="53199584" version="7" changeset="114765100" uid="1408522" user="Omnific" timestamp="2021-12-10T01:30:08Z"><nd ref="673324774" /><nd ref="673324776" /><nd ref="4728618105" /><nd ref="673324777" /><nd ref="8604389933" /><nd ref="673324779" /><nd ref="4728618130" /><nd ref="673324774" /><tag k="addr:unit" v="188J" /><tag k="building" v="warehouse" /><tag k="name" v="Delta Airlines Cargo Facility" /><tag k="operator" v="Delta Airlines" /></way><way id="53199586" version="9" changeset="102511403" uid="11390451" user="markkerrigan" timestamp="2021-04-08T00:48:28Z"><nd ref="673324781" /><nd ref="673324783" /><nd ref="4728618131" /><nd ref="673324787" /><nd ref="8604389934" /><nd ref="673324791" /><nd ref="673324792" /><nd ref="673324794" /><nd ref="673324795" /><nd ref="673324796" /><nd ref="673324781" /><tag k="aeroway" v="hangar" /><tag k="building" v="yes" /><tag k="name" v="Delta Airlines Maintenance Hangar" /><tag k="name:en" v="Delta Airlines Maintenance Hangar" /></way></osm>