{"type":"FeatureCollection","features":[{"type":"Feature","properties":{"adm1_code":"AIA+99?","adm0_a3":"AIA","name_en":"AIA+99?","name_zh":"","name_local":"","clip_limitation":"","iso_3166_2":"AI-X00"},"geometry":{"type":"MultiPolygon","coordinates":[[[[-63.42796790299991,18.59284088700008],[-63.42882239499994,18.601263739000046],[-63.42357337099992,18.600043036000045],[-63.42796790299991,18.59284088700008]]],[[[-63.252030887180354,18.272969970560457],[-63.26147434826127,18.276246273384444],[-63.262630690434435,18.28202798425031],[-63.25357267674458,18.28684607663853],[-63.2456059437692,18.283210111463976],[-63.236034820451465,18.282991602727954],[-63.252030887180354,18.272969970560457]]],[[[-63.1845043622015,18.26804736437459],[-63.179493546117754,18.266505574810356],[-63.18354074372386,18.265156508941654],[-63.18700977024338,18.265349232637185],[-63.18970790198078,18.267469193288],[-63.19221331002265,18.268818259156703],[-63.190093349371836,18.26920370654776],[-63.18643159915679,18.268432811765646],[-63.1845043622015,18.26804736437459]]],[[[-63.174290006338474,18.26457833785507],[-63.172362769383184,18.26457833785507],[-63.171206427210016,18.265541956332715],[-63.16908646655919,18.265349232637185],[-63.16831557177708,18.261880206117667],[-63.17139915090554,18.26149475872661],[-63.17409728264295,18.262072929813193],[-63.174290006338474,18.26457833785507]]]]}},{"type":"Feature","properties":{"adm1_code":"AIA-5114","adm0_a3":"AIA","name_en":"Blowing Point","name_zh":"鼓风角","name_local":"","clip_limitation":"","iso_3166_2":"AI-X01~"},"geometry":{"type":"Polygon","coordinates":[[[-63.06138795798485,18.198851194249563],[-63.09951738199993,18.176174221000053],[-63.10236568899995,18.18040599200009],[-63.10912024599992,18.18504466400009],[-63.113840298999946,18.189846096000053],[-63.113872225722616,18.196851991226424],[-63.10272217019201,18.196851991226424],[-63.10192573778255,18.201232370377568],[-63.087589950815584,18.20163058658227],[-63.08121849064082,18.20680739814287],[-63.07262947946691,18.212132585250572],[-63.072119709556944,18.202760427351848],[-63.0654518247419,18.20581654130035],[-63.06133404313158,18.21248462306687],[-63.06138795798485,18.198851194249563]]]}},{"type":"Feature","properties":{"adm1_code":"AIA-5115","adm0_a3":"AIA","name_en":"East End","name_zh":"东区","name_local":"","clip_limitation":"","iso_3166_2":"AI-X02~"},"geometry":{"type":"MultiPolygon","coordinates":[[[[-63.0134966420693,18.27196882837393],[-63.00739498599995,18.27301666900007],[-63.00754847748027,18.267336273849935],[-62.99998236869135,18.267336273849935],[-62.994522918299275,18.274897109773615],[-62.98399817599994,18.27643463700008],[-62.972645636999914,18.275864976000037],[-62.97288977799991,18.269273179000038],[-62.99290930899991,18.236883856000077],[-62.99480441316903,18.2345250563514],[-62.994407340026726,18.243841513275186],[-63.00197344971491,18.243841513275186],[-62.99639842194961,18.25220405447351],[-62.99520377333545,18.25618621742001],[-63.00316809832907,18.260964812775853],[-63.013521722349594,18.260964812775853],[-63.0134966420693,18.27196882837393]]],[[[-62.95820458534228,18.28942162673183],[-62.95067631598569,18.292131803700205],[-62.94766500824305,18.297251026862686],[-62.93381299262692,18.294540849894315],[-62.92568246172179,18.289722757506095],[-62.93200620798133,18.287313711311985],[-62.94495483127468,18.283700142020816],[-62.94736387746879,18.280387703503916],[-62.95669893147096,18.27436508801864],[-62.96001136998786,18.27767752653554],[-62.95609666992243,18.28249561892376],[-62.95820458534228,18.28942162673183]]]]}},{"type":"Feature","properties":{"adm1_code":"AIA-5116","adm0_a3":"AIA","name_en":"George Hill","name_zh":"乔治山","name_local":"","clip_limitation":"","iso_3166_2":"AI-X03~"},"geometry":{"type":"Polygon","coordinates":[[[-63.07262947946691,18.212132585250572],[-63.061307675908495,18.219152103187014],[-63.06133404313158,18.21248462306687],[-63.0654518247419,18.20581654130035],[-63.072119709556944,18.202760427351848],[-63.07262947946691,18.212132585250572]]]}},{"type":"Feature","properties":{"adm1_code":"AIA-5117","adm0_a3":"AIA","name_en":"Island Harbour","name_zh":"维港岛","name_local":"","clip_limitation":"","iso_3166_2":"AI-X04~"},"geometry":{"type":"Polygon","coordinates":[[[-63.00739498599995,18.27301666900007],[-62.994522918299275,18.274897109773615],[-62.99998236869135,18.267336273849935],[-63.00754847748027,18.267336273849935],[-63.00739498599995,18.27301666900007]]]}},{"type":"Feature","properties":{"adm1_code":"AIA-5118","adm0_a3":"AIA","name_en":"North Hill","name_zh":"北山","name_local":"","clip_limitation":"","iso_3166_2":"AI-X05~"},"geometry":{"type":"Polygon","coordinates":[[[-63.07790158819733,18.22596689496088],[-63.07271784643071,18.231349113395172],[-63.04697188984085,18.2267182128752],[-63.061307675908495,18.219152103187014],[-63.06927200180144,18.219550319391715],[-63.075831534497695,18.216270553043557],[-63.07552242222198,18.22051073688101],[-63.07790158819733,18.22596689496088]]]}},{"type":"Feature","properties":{"adm1_code":"AIA-5119","adm0_a3":"AIA","name_en":"North Side","name_zh":"北区","name_local":"","clip_limitation":"","iso_3166_2":"AI-X06~"},"geometry":{"type":"Polygon","coordinates":[[[-63.06116477783558,18.245783646662915],[-63.05508378799993,18.254339911000045],[-63.03819739499994,18.267726955000057],[-63.02292465865546,18.270349750095725],[-63.02228248065194,18.262557678494034],[-63.02586642649436,18.253000487782288],[-63.039007563947905,18.25260227157753],[-63.04811386066615,18.23544116188009],[-63.06116477783558,18.245783646662915]]]}},{"type":"Feature","properties":{"adm1_code":"AIA-5120","adm0_a3":"AIA","name_en":"Sandy Ground","name_zh":"沙地","name_local":"","clip_limitation":"","iso_3166_2":"AI-X07~"},"geometry":{"type":"Polygon","coordinates":[[[-63.09723873599995,18.21246979400007],[-63.08584550699993,18.217718817000048],[-63.07790158819733,18.22596689496088],[-63.07552242222198,18.22051073688101],[-63.075831534497695,18.216270553043557],[-63.07882919251324,18.214771724035813],[-63.09723873599995,18.21246979400007]]]}},{"type":"Feature","properties":{"adm1_code":"AIA-5121","adm0_a3":"AIA","name_en":"Sandy Hill Bay","name_zh":"桑迪山","name_local":"","clip_limitation":"","iso_3166_2":"AI-X08~"},"geometry":{"type":"Polygon","coordinates":[[[-62.99480441316903,18.2345250563514],[-63.000559048999946,18.227362372000073],[-63.01154537699995,18.220445054000038],[-63.03043528185997,18.21503112502773],[-63.03144145515904,18.224727130952317],[-63.034228968592004,18.227912861489358],[-63.0292976305812,18.235164828993675],[-63.0230789130614,18.25100940585935],[-63.01113242422201,18.250212973449948],[-62.99520377333545,18.25618621742001],[-62.99639842194961,18.25220405447351],[-63.00197344971491,18.243841513275186],[-62.994407340026726,18.243841513275186],[-62.99480441316903,18.2345250563514]]]}},{"type":"Feature","properties":{"adm1_code":"AIA-5122","adm0_a3":"AIA","name_en":"South Hill","name_zh":"南希尔","name_local":"","clip_limitation":"","iso_3166_2":"AI-X09~"},"geometry":{"type":"Polygon","coordinates":[[[-63.12279212099992,18.20807526200008],[-63.09723873599995,18.21246979400007],[-63.07882919251324,18.214771724035813],[-63.075831534497695,18.216270553043557],[-63.06927200180144,18.219550319391715],[-63.061307675908495,18.219152103187014],[-63.07262947946691,18.212132585250572],[-63.08121849064082,18.20680739814287],[-63.087589950815584,18.20163058658227],[-63.10192573778255,18.201232370377568],[-63.10272217019201,18.196851991226424],[-63.113872225722616,18.196851991226424],[-63.113840298999946,18.189846096000053],[-63.122599348333104,18.183582987957347],[-63.12279212099992,18.20807526200008]]]}},{"type":"Feature","properties":{"adm1_code":"AIA-5123","adm0_a3":"AIA","name_en":"Stoney Ground","name_zh":"斯托尼地","name_local":"","clip_limitation":"","iso_3166_2":"AI-X10~"},"geometry":{"type":"Polygon","coordinates":[[[-63.02292465865546,18.270349750095725],[-63.0134966420693,18.27196882837393],[-63.013521722349594,18.260964812775853],[-63.00316809832907,18.260964812775853],[-62.99520377333545,18.25618621742001],[-63.01113242422201,18.250212973449948],[-63.0230789130614,18.25100940585935],[-63.0292976305812,18.235164828993675],[-63.04275299025829,18.23489233081642],[-63.04410813548208,18.232266736720533],[-63.04811386066615,18.23544116188009],[-63.039007563947905,18.25260227157753],[-63.02586642649436,18.253000487782288],[-63.02228248065194,18.262557678494034],[-63.02292465865546,18.270349750095725]]]}},{"type":"Feature","properties":{"adm1_code":"AIA-5124","adm0_a3":"AIA","name_en":"The Farrington","name_zh":"法灵顿","name_local":"","clip_limitation":"","iso_3166_2":"AI-X11~"},"geometry":{"type":"Polygon","coordinates":[[[-63.03043528185997,18.21503112502773],[-63.037668423999946,18.212958075000074],[-63.06138795798485,18.198851194249563],[-63.06133404313158,18.21248462306687],[-63.061307675908495,18.219152103187014],[-63.04697188984085,18.2267182128752],[-63.034228968592004,18.227912861489358],[-63.03144145515904,18.224727130952317],[-63.03043528185997,18.21503112502773]]]}},{"type":"Feature","properties":{"adm1_code":"AIA-5125","adm0_a3":"AIA","name_en":"The Quarter","name_zh":"夸特","name_local":"","clip_limitation":"","iso_3166_2":"AI-X12~"},"geometry":{"type":"Polygon","coordinates":[[[-63.034228968592004,18.227912861489358],[-63.04697188984085,18.2267182128752],[-63.04410813548208,18.232266736720533],[-63.04275299025829,18.23489233081642],[-63.0292976305812,18.235164828993675],[-63.034228968592004,18.227912861489358]]]}},{"type":"Feature","properties":{"adm1_code":"AIA-5126","adm0_a3":"AIA","name_en":"The Valley","name_zh":"瓦利","name_local":"","clip_limitation":"","iso_3166_2":"AI-X13~"},"geometry":{"type":"Polygon","coordinates":[[[-63.07271784643071,18.231349113395172],[-63.06777910099993,18.236476955000057],[-63.06116477783558,18.245783646662915],[-63.04811386066615,18.23544116188009],[-63.04410813548208,18.232266736720533],[-63.04697188984085,18.2267182128752],[-63.07271784643071,18.231349113395172]]]}},{"type":"Feature","properties":{"adm1_code":"AIA-5127","adm0_a3":"AIA","name_en":"West End","name_zh":"西尾","name_local":"","clip_limitation":"","iso_3166_2":"AI-X14~"},"geometry":{"type":"Polygon","coordinates":[[[-63.122599348333104,18.183582987957347],[-63.136830206999946,18.17340729400007],[-63.150502081999946,18.169094143000052],[-63.16783606699994,18.16933828300006],[-63.14207923099991,18.198146877000056],[-63.13434811099995,18.20408763200004],[-63.12279212099992,18.20807526200008],[-63.122599348333104,18.183582987957347]]]}}]}