{"type":"FeatureCollection","features":[{"type":"Feature","properties":{"adm1_code":"BLM-5113","adm0_a3":"BLM","name_en":"Saint Barthélemy","name_zh":"圣巴泰勒米","name_local":"","clip_limitation":"","iso_3166_2":"BL-X00~"},"geometry":{"type":"Polygon","coordinates":[[[-62.83885657499991,17.881984768000052],[-62.85094153599994,17.890448309000078],[-62.861317511999914,17.905422268000052],[-62.86733964799993,17.920396226000037],[-62.866118943999936,17.92914459800005],[-62.857411261999914,17.925034898000092],[-62.79165605399993,17.91547272300005],[-62.798939581999946,17.90448639500005],[-62.81012936099995,17.892279364000046],[-62.82384192599994,17.883246161000045],[-62.83885657499991,17.881984768000052]]]}}]}