{"type":"FeatureCollection","features":[{"type":"Feature","properties":{"adm1_code":"GIB+00?","adm0_a3":"GIB","name_en":"Gibraltar","name_zh":"直布罗陀","name_local":"","clip_limitation":"","iso_3166_2":"GI-X01~"},"geometry":{"type":"Polygon","coordinates":[[[-5.358386758461411,36.141109447000375],[-5.338773483242616,36.14111967199992],[-5.339914516999954,36.12982819200005],[-5.339060024999924,36.12384674700007],[-5.34203040299991,36.11050039300005],[-5.3502498039999296,36.11928945500006],[-5.358386758461411,36.141109447000375]]]}}]}