{"type":"FeatureCollection","features":[{"type":"Feature","properties":{"adm1_code":"KNA-5099","adm0_a3":"KNA","name_en":"Christ Church Nichola Town","name_zh":"基督教会尼古拉镇区","name_local":"","clip_limitation":"","iso_3166_2":"KN-01"},"geometry":{"type":"Polygon","coordinates":[[[-62.76942301109902,17.386996529477653],[-62.730508651385584,17.364614414347354],[-62.737556785417326,17.36087478434382],[-62.741449133071,17.354387537354967],[-62.74599020578336,17.34400794271238],[-62.74534148072473,17.331033449633992],[-62.754423626149446,17.331033449633992],[-62.77907516398761,17.335574522346292],[-62.78037261410486,17.342061768435826],[-62.78750858525302,17.34984646464261],[-62.77518281633388,17.367362031332675],[-62.77648026555181,17.374498002480834],[-62.76942301109902,17.386996529477653]]]}},{"type":"Feature","properties":{"adm1_code":"KNA-5100","adm0_a3":"KNA","name_en":"Saint Anne Sandy Point","name_zh":"圣安娜沙角区","name_local":"","clip_limitation":"","iso_3166_2":"KN-02"},"geometry":{"type":"Polygon","coordinates":[[[-62.83161373599995,17.330145575000074],[-62.86107337099992,17.36229075700004],[-62.85663642678882,17.380425345068055],[-62.84459635713614,17.377092901815956],[-62.840704008583145,17.38228269868756],[-62.83486548665286,17.37968780025176],[-62.83616293587079,17.3725518291036],[-62.80761905037889,17.36671330627405],[-62.81475502152699,17.353090088137037],[-62.81929609423935,17.353090088137037],[-62.82448589201027,17.341413044276578],[-62.83161373599995,17.330145575000074]]]}},{"type":"Feature","properties":{"adm1_code":"KNA-5101","adm0_a3":"KNA","name_en":"Saint George Basseterre","name_zh":"圣乔治巴塞特莱区","name_local":"","clip_limitation":"","iso_3166_2":"KN-03"},"geometry":{"type":"Polygon","coordinates":[[[-62.68116410151496,17.299400111410645],[-62.67813066299993,17.292222398000092],[-62.666859503999945,17.273504950000074],[-62.650461391999954,17.26561107000009],[-62.636830206999946,17.258205471000053],[-62.62482662699995,17.241848049000055],[-62.62474524599992,17.22528717700004],[-62.647043423999946,17.217189846000053],[-62.65973873599995,17.225490627000056],[-62.670480923999946,17.26316966400009],[-62.690297003999945,17.27496979400007],[-62.70335852799991,17.289129950000074],[-62.712554490999935,17.292303778000075],[-62.72380534911744,17.291693266460513],[-62.73171826258772,17.305733186737143],[-62.72912336415192,17.30897681023157],[-62.7343131619229,17.31870768071485],[-62.727825914934044,17.320653854092086],[-62.72328484222169,17.313517882943927],[-62.709661624084674,17.310922984508125],[-62.69928202944209,17.305733186737143],[-62.69019988311811,17.29859721558904],[-62.68116410151496,17.299400111410645]]]}},{"type":"Feature","properties":{"adm1_code":"KNA-5102","adm0_a3":"KNA","name_en":"Saint George Gingerland","name_zh":"圣乔治金哲兰区","name_local":"","clip_limitation":"","iso_3166_2":"KN-04"},"geometry":{"type":"Polygon","coordinates":[[[-62.53695611413754,17.138392582553614],[-62.536773240999935,17.129706122000073],[-62.53844153599994,17.12099844000005],[-62.54356848899994,17.10887278900009],[-62.54759680899991,17.104641018000052],[-62.5657445949999,17.100531317000048],[-62.57861923868688,17.145498191688205],[-62.56240112211407,17.150039264400505],[-62.548777903977054,17.145498191688205],[-62.53695611413754,17.138392582553614]]]}},{"type":"Feature","properties":{"adm1_code":"KNA-5103","adm0_a3":"KNA","name_en":"Saint James Windward","name_zh":"圣詹姆斯温沃德区","name_local":"","clip_limitation":"","iso_3166_2":"KN-05"},"geometry":{"type":"Polygon","coordinates":[[[-62.61254962468859,17.189128704837245],[-62.59923255099994,17.202948309000078],[-62.57843990799995,17.20254140800006],[-62.56037350199995,17.19672272300005],[-62.54649817599994,17.18378327000005],[-62.53844153599994,17.161932684000078],[-62.53726152299993,17.152899481000077],[-62.53695611413754,17.138392582553614],[-62.548777903977054,17.145498191688205],[-62.56240112211407,17.150039264400505],[-62.57861923868688,17.145498191688205],[-62.595486080318324,17.17728570067453],[-62.61254962468859,17.189128704837245]]]}},{"type":"Feature","properties":{"adm1_code":"KNA-5104","adm0_a3":"KNA","name_en":"Saint John Capisterre","name_zh":"圣约翰卡皮斯特莱区","name_local":"","clip_limitation":"","iso_3166_2":"KN-06"},"geometry":{"type":"Polygon","coordinates":[[[-62.822336391999954,17.410101630000042],[-62.819569464999915,17.415838934000078],[-62.76942301109902,17.386996529477653],[-62.77648026555181,17.374498002480834],[-62.77518281633388,17.367362031332675],[-62.78750858525302,17.34984646464261],[-62.80761905037889,17.36671330627405],[-62.80826777453814,17.3725518291036],[-62.81475502152699,17.374498002480834],[-62.81799864502142,17.380336524411064],[-62.818647369180724,17.392013569170842],[-62.818647369180724,17.401744438754804],[-62.822336391999954,17.410101630000042]]]}},{"type":"Feature","properties":{"adm1_code":"KNA-5105","adm0_a3":"KNA","name_en":"Saint John Figtree","name_zh":"圣约翰费格特里区","name_local":"","clip_limitation":"","iso_3166_2":"KN-07"},"geometry":{"type":"Polygon","coordinates":[[[-62.5657445949999,17.100531317000048],[-62.612172003999945,17.10415273600006],[-62.62156743074415,17.128327787399577],[-62.60846057429603,17.129280075115332],[-62.5922424568239,17.13252369771044],[-62.57861923868688,17.145498191688205],[-62.5657445949999,17.100531317000048]]]}},{"type":"Feature","properties":{"adm1_code":"KNA-5106","adm0_a3":"KNA","name_en":"Saint Mary Cayon","name_zh":"圣玛丽卡永区","name_local":"","clip_limitation":"","iso_3166_2":"KN-08"},"geometry":{"type":"Polygon","coordinates":[[[-62.730508651385584,17.364614414347354],[-62.719960089999915,17.358547268000052],[-62.70356139150912,17.341603761621016],[-62.71160779746185,17.337520695723526],[-62.72198739300376,17.337520695723526],[-62.73171826258772,17.33881814584072],[-62.738205509576574,17.330384724575367],[-62.74534148072473,17.331033449633992],[-62.74599020578336,17.34400794271238],[-62.741449133071,17.354387537354967],[-62.737556785417326,17.36087478434382],[-62.730508651385584,17.364614414347354]]]}},{"type":"Feature","properties":{"adm1_code":"KNA-5107","adm0_a3":"KNA","name_en":"Saint Paul Capisterre","name_zh":"圣保罗卡皮斯特莱区","name_local":"","clip_limitation":"","iso_3166_2":"KN-09"},"geometry":{"type":"Polygon","coordinates":[[[-62.85663642678882,17.380425345068055],[-62.85313880099994,17.39472077000005],[-62.84923255099994,17.398138739000046],[-62.846547003999945,17.39996979400007],[-62.84357662699995,17.40106842700004],[-62.83885657499991,17.402167059000078],[-62.82664954299992,17.407171942000048],[-62.822336391999954,17.410101630000042],[-62.818647369180724,17.401744438754804],[-62.818647369180724,17.392013569170842],[-62.81799864502142,17.380336524411064],[-62.81475502152699,17.374498002480834],[-62.80826777453814,17.3725518291036],[-62.80761905037889,17.36671330627405],[-62.83616293587079,17.3725518291036],[-62.83486548665286,17.37968780025176],[-62.840704008583145,17.38228269868756],[-62.84459635713614,17.377092901815956],[-62.85663642678882,17.380425345068055]]]}},{"type":"Feature","properties":{"adm1_code":"KNA-5108","adm0_a3":"KNA","name_en":"Saint Paul Charlestown","name_zh":"圣保罗查尔斯敦区","name_local":"","clip_limitation":"","iso_3166_2":"KN-10"},"geometry":{"type":"Polygon","coordinates":[[[-62.62156743074415,17.128327787399577],[-62.62637285099993,17.140692450000074],[-62.59678353043557,17.138362220540046],[-62.57861923868688,17.145498191688205],[-62.5922424568239,17.13252369771044],[-62.60846057429603,17.129280075115332],[-62.62156743074415,17.128327787399577]]]}},{"type":"Feature","properties":{"adm1_code":"KNA-5109","adm0_a3":"KNA","name_en":"Saint Peter Basseterre","name_zh":"圣彼得巴塞特莱区","name_local":"","clip_limitation":"","iso_3166_2":"KN-11"},"geometry":{"type":"Polygon","coordinates":[[[-62.70356139150912,17.341603761621016],[-62.69546464799993,17.333238023000092],[-62.68116410151496,17.299400111410645],[-62.69019988311811,17.29859721558904],[-62.69928202944209,17.305733186737143],[-62.709661624084674,17.310922984508125],[-62.72328484222169,17.313517882943927],[-62.727825914934044,17.320653854092086],[-62.7343131619229,17.31870768071485],[-62.738205509576574,17.330384724575367],[-62.73171826258772,17.33881814584072],[-62.72198739300376,17.337520695723526],[-62.71160779746185,17.337520695723526],[-62.70356139150912,17.341603761621016]]]}},{"type":"Feature","properties":{"adm1_code":"KNA-5110","adm0_a3":"KNA","name_en":"Saint Thomas Lowland","name_zh":"圣托马斯低地区","name_local":"","clip_limitation":"","iso_3166_2":"KN-12"},"geometry":{"type":"Polygon","coordinates":[[[-62.62637285099993,17.140692450000074],[-62.61864173099991,17.182806708000044],[-62.61254962468859,17.189128704837245],[-62.595486080318324,17.17728570067453],[-62.57861923868688,17.145498191688205],[-62.59678353043557,17.138362220540046],[-62.62637285099993,17.140692450000074]]]}},{"type":"Feature","properties":{"adm1_code":"KNA-5111","adm0_a3":"KNA","name_en":"Saint Thomas Middle Island","name_zh":"圣托马斯米德艾兰区","name_local":"","clip_limitation":"","iso_3166_2":"KN-13"},"geometry":{"type":"Polygon","coordinates":[[[-62.77162512547377,17.298017004932237],[-62.788726365999935,17.30467357000009],[-62.83161373599995,17.330145575000074],[-62.82448589201027,17.341413044276578],[-62.81929609423935,17.353090088137037],[-62.81475502152699,17.353090088137037],[-62.80761905037889,17.36671330627405],[-62.78750858525302,17.34984646464261],[-62.78037261410486,17.342061768435826],[-62.77907516398761,17.335574522346292],[-62.754423626149446,17.331033449633992],[-62.75831597470244,17.31741023149698],[-62.766100670909225,17.313517882943927],[-62.76934429440365,17.305084462577895],[-62.77162512547377,17.298017004932237]]]}},{"type":"Feature","properties":{"adm1_code":"KNA-5112","adm0_a3":"KNA","name_en":"Trinity Palmetto Point","name_zh":"特立尼提帕美托角区","name_local":"","clip_limitation":"","iso_3166_2":"KN-14"},"geometry":{"type":"Polygon","coordinates":[[[-62.72380534911744,17.291693266460513],[-62.74404863199993,17.29059479400007],[-62.75694739499994,17.292303778000075],[-62.77162512547377,17.298017004932237],[-62.76934429440365,17.305084462577895],[-62.766100670909225,17.313517882943927],[-62.75831597470244,17.31741023149698],[-62.754423626149446,17.331033449633992],[-62.74534148072473,17.331033449633992],[-62.738205509576574,17.330384724575367],[-62.7343131619229,17.31870768071485],[-62.72912336415192,17.30897681023157],[-62.73171826258772,17.305733186737143],[-62.72380534911744,17.291693266460513]]]}}]}