{"type":"FeatureCollection","features":[{"type":"Feature","properties":{"adm1_code":"NRU-4970","adm0_a3":"NRU","name_en":"Buada","name_zh":"部亚达区","name_local":"","clip_limitation":"","iso_3166_2":"NR-07"},"geometry":{"type":"Polygon","coordinates":[[[166.9361354201135,-0.5251950456148506],[166.93547528175884,-0.5298160167957349],[166.9252922897074,-0.5343808064290556],[166.92009402481938,-0.5387993312241406],[166.91791839841528,-0.53508308161895],[166.91616271044063,-0.5291137416058973],[166.91686498563047,-0.5241978143776578],[166.92037636247903,-0.5206864375290934],[166.9284525280617,-0.5227932639979258],[166.9361354201135,-0.5251950456148506]]]}},{"type":"Feature","properties":{"adm1_code":"NRU-4971","adm0_a3":"NRU","name_en":"Boe","name_zh":"泊区","name_local":"","clip_limitation":"","iso_3166_2":"NR-06"},"geometry":{"type":"Polygon","coordinates":[[[166.9163517587266,-0.5475399716923448],[166.91199305222304,-0.5369653708023743],[166.91791839841528,-0.53508308161895],[166.92009402481938,-0.5387993312241406],[166.91826953601026,-0.5403501464421083],[166.9163517587266,-0.5475399716923448]]]}},{"type":"Feature","properties":{"adm1_code":"NRU-4972","adm0_a3":"NRU","name_en":"Aiwo","name_zh":"爱和区","name_local":"","clip_limitation":"","iso_3166_2":"NR-01"},"geometry":{"type":"Polygon","coordinates":[[[166.91199305222304,-0.5369653708023743],[166.90699303490055,-0.524834894115088],[166.91686498563047,-0.5241978143776578],[166.91616271044063,-0.5291137416058973],[166.91791839841528,-0.53508308161895],[166.91199305222304,-0.5369653708023743]]]}},{"type":"Feature","properties":{"adm1_code":"NRU-4973","adm0_a3":"NRU","name_en":"Denigomodu","name_zh":"德尼高莫都区","name_local":"","clip_limitation":"","iso_3166_2":"NR-08"},"geometry":{"type":"Polygon","coordinates":[[[166.90699303490055,-0.524834894115088],[166.9103115675512,-0.5121068504585311],[166.92037636247903,-0.5206864375290934],[166.91686498563047,-0.5241978143776578],[166.90699303490055,-0.524834894115088]]]}},{"type":"Feature","properties":{"adm1_code":"NRU-4974","adm0_a3":"NRU","name_en":"Nibok","name_zh":"尼柏区","name_local":"","clip_limitation":"","iso_3166_2":"NR-12"},"geometry":{"type":"Polygon","coordinates":[[[166.9103115675512,-0.5121068504585311],[166.913422071,-0.5001766909999219],[166.93679786343057,-0.5201990544427986],[166.93652869454354,-0.522442126403007],[166.9361354201135,-0.5251950456148506],[166.9284525280617,-0.5227932639979258],[166.92037636247903,-0.5206864375290934],[166.9103115675512,-0.5121068504585311]]]}},{"type":"Feature","properties":{"adm1_code":"NRU-4975","adm0_a3":"NRU","name_en":"Uaboe","name_zh":"优雅布区","name_local":"","clip_limitation":"","iso_3166_2":"NR-13"},"geometry":{"type":"Polygon","coordinates":[[[166.913422071,-0.5001766909999219],[166.9180672919389,-0.49839006756188736],[166.93723983165285,-0.5165159862237942],[166.93679786343057,-0.5201990544427986],[166.913422071,-0.5001766909999219]]]}},{"type":"Feature","properties":{"adm1_code":"NRU-4976","adm0_a3":"NRU","name_en":"Baiti","name_zh":"白帝区","name_local":"","clip_limitation":"","iso_3166_2":"NR-05"},"geometry":{"type":"Polygon","coordinates":[[[166.9180672919389,-0.49839006756188736],[166.92512624457748,-0.4956750857778191],[166.9380477771831,-0.5105204138860131],[166.93758210732835,-0.5136636847312843],[166.93723983165285,-0.5165159862237942],[166.9180672919389,-0.49839006756188736]]]}},{"type":"Feature","properties":{"adm1_code":"NRU-4977","adm0_a3":"NRU","name_en":"Ewa","name_zh":"埃瓦区","name_local":"","clip_limitation":"","iso_3166_2":"NR-09"},"geometry":{"type":"Polygon","coordinates":[[[166.92512624457748,-0.4956750857778191],[166.93119694447864,-0.49334020120044914],[166.93898665770803,-0.5041829678696672],[166.9380477771831,-0.5105204138860131],[166.92512624457748,-0.4956750857778191]]]}},{"type":"Feature","properties":{"adm1_code":"NRU-4978","adm0_a3":"NRU","name_en":"Anetan","name_zh":"安鄂滩区","name_local":"","clip_limitation":"","iso_3166_2":"NR-03"},"geometry":{"type":"Polygon","coordinates":[[[166.93119694447864,-0.49334020120044914],[166.938812696,-0.4904110659999219],[166.93898665770803,-0.5041829678696672],[166.93119694447864,-0.49334020120044914]]]}},{"type":"Feature","properties":{"adm1_code":"NRU-4979","adm0_a3":"NRU","name_en":"Anabar","name_zh":"阿纳巴尔区","name_local":"","clip_limitation":"","iso_3166_2":"NR-02"},"geometry":{"type":"Polygon","coordinates":[[[166.938812696,-0.4904110659999219],[166.95557701896416,-0.4979794246107758],[166.93898665770803,-0.5041829678696672],[166.938812696,-0.4904110659999219]]]}},{"type":"Feature","properties":{"adm1_code":"NRU-4980","adm0_a3":"NRU","name_en":"Ijuw","name_zh":"艾珠区","name_local":"","clip_limitation":"","iso_3166_2":"NR-10"},"geometry":{"type":"Polygon","coordinates":[[[166.95557701896416,-0.4979794246107758],[166.95739737495433,-0.5113287010537537],[166.946711686595,-0.5087477575030448],[166.93898665770803,-0.5041829678696672],[166.95557701896416,-0.4979794246107758]]]}},{"type":"Feature","properties":{"adm1_code":"NRU-4981","adm0_a3":"NRU","name_en":"Anibare","name_zh":"安尼巴惹区","name_local":"","clip_limitation":"","iso_3166_2":"NR-04"},"geometry":{"type":"Polygon","coordinates":[[[166.95739737495433,-0.5113287010537537],[166.95826256600003,-0.5176734349999492],[166.95320459099045,-0.5333829096614827],[166.94530713531594,-0.5322739808595429],[166.93547528175884,-0.5298160167957349],[166.9361354201135,-0.5251950456148506],[166.93652869454354,-0.522442126403007],[166.93679786343057,-0.5201990544427986],[166.93723983165285,-0.5165159862237942],[166.93758210732835,-0.5136636847312843],[166.9380477771831,-0.5105204138860131],[166.93898665770803,-0.5041829678696672],[166.946711686595,-0.5087477575030448],[166.95739737495433,-0.5113287010537537]]]}},{"type":"Feature","properties":{"adm1_code":"NRU-4982","adm0_a3":"NRU","name_en":"Meneng","name_zh":"湄泞区","name_local":"","clip_limitation":"","iso_3166_2":"NR-11"},"geometry":{"type":"Polygon","coordinates":[[[166.95320459099045,-0.5333829096614827],[166.95134524800005,-0.5391578099999492],[166.938812696,-0.5518531229999439],[166.93264031197612,-0.5506678462726399],[166.9252922897074,-0.5343808064290556],[166.93547528175884,-0.5298160167957349],[166.94530713531594,-0.5322739808595429],[166.95320459099045,-0.5333829096614827]]]}},{"type":"Feature","properties":{"adm1_code":"NRU-4983","adm0_a3":"NRU","name_en":"Yaren","name_zh":"亚伦区","name_local":"","clip_limitation":"","iso_3166_2":"NR-14"},"geometry":{"type":"Polygon","coordinates":[[[166.93264031197612,-0.5506678462726399],[166.9163517587266,-0.5475399716923448],[166.91826953601026,-0.5403501464421083],[166.92009402481938,-0.5387993312241406],[166.9252922897074,-0.5343808064290556],[166.93264031197612,-0.5506678462726399]]]}}]}