{"type":"FeatureCollection","features":[{"type":"Feature","properties":{"adm1_code":"VAT+00?","adm0_a3":"VAT","name_en":"Vatican City","name_zh":"梵蒂冈","name_local":"","clip_limitation":"","iso_3166_2":"VA-X01~"},"geometry":{"type":"Polygon","coordinates":[[[12.45303120800014,41.903914738000125],[12.453982588000144,41.903861883999994],[12.454035442000077,41.90275194100009],[12.45313691700008,41.90275194100009],[12.452714082000085,41.903016213000015],[12.452766936000103,41.903439049],[12.45303120800014,41.903914738000125]]]}}]}